NAME,ADDRESS,CITY,STATE,ZIP,TYPE,STATUS,COUNTY,COUNTRY,LATITUDE,LONGITUDE,INSURANCE
VALLEYCARE MEDICAL CENTER,5555 WEST LAS POSITAS BLVD.,PLEASANTON,CA,94588,GENERAL ACUTE CARE,OPEN,ALAMEDA,USA,37.69359647,-121.8803076,"Kaiser, Alameda Alliance for Health"
VALLEY MEMORIAL HOSPITAL - LIVERMORE,1111 E. STANLEY BOULEVARD,LIVERMORE,CA,94550,GENERAL ACUTE CARE,OPEN,ALAMEDA,USA,37.67732014,-121.7817916,"Kaiser, Alameda Alliance for Health"
VA MEDICAL CENTER - LIVERMORE DIVISION,4951 ARROYO RD,LIVERMORE,CA,94550,MILITARY,OPEN,ALAMEDA,USA,37.62555427,-121.7631034,"Kaiser, Alameda Alliance for Health"
KAISER FOUNDATION HOSPITAL - SAN LEANDRO,2500 MERCED STREET,SAN LEANDRO,CA,94577,GENERAL ACUTE CARE,OPEN,ALAMEDA,USA,37.7064062,-122.1646545,"Kaiser, Alameda Alliance for Health"
HIGHLAND HOSPITAL,1411 EAST 31ST STREET,OAKLAND,CA,94602,GENERAL ACUTE CARE,OPEN,ALAMEDA,USA,37.79880162,-122.2311956,"Kaiser, Alameda Alliance for Health"
WASHINGTON HOSPITAL - FREMONT,2000 MOWRY AVENUE,FREMONT,CA,94538,GENERAL ACUTE CARE,OPEN,ALAMEDA,USA,37.55728288,-121.9798084,"Kaiser, Alameda Alliance for Health"
ST. ROSE HOSPITAL,27200 CALAROGA AVENUE,HAYWARD,CA,94545,GENERAL ACUTE CARE,OPEN,ALAMEDA,USA,37.63344199,-122.0879125,"Kaiser, Alameda Alliance for Health"
KINDRED HOSPITAL - SAN FRANCISCO BAY AREA,2800 BENEDICT DRIVE,SAN LEANDRO,CA,94577,GENERAL ACUTE CARE,OPEN,ALAMEDA,USA,37.7162326,-122.130564,"Kaiser, Alameda Alliance for Health"
FREMONT HOSPITAL,39001 SUNDALE DRIVE,FREMONT,CA,94538,PSYCHIATRIC,OPEN,ALAMEDA,USA,37.5466295,-121.9796431,"Kaiser, Alameda Alliance for Health"
SAN LEANDRO HOSPITAL,13855 EAST 14TH STREET,SAN LEANDRO,CA,94578,GENERAL ACUTE CARE,OPEN,ALAMEDA,USA,37.71228835,-122.1434937,"Kaiser, Alameda Alliance for Health"
TELECARE HERITAGE PSYCHIATRIC HEALTH FACILITY,2633 EAST 27TH STREET,OAKLAND,CA,94601,PSYCHIATRIC,OPEN,ALAMEDA,USA,37.79069713,-122.2221838,"Kaiser, Alameda Alliance for Health"
KAISER FND HOSP - OAKLAND CAMPUS,280 W. MACARTHUR BOULEVARD,OAKLAND,CA,94611,GENERAL ACUTE CARE,OPEN,ALAMEDA,USA,37.82466462,-122.2574667,"Kaiser, Alameda Alliance for Health"
EDEN MEDICAL CENTER,20103 LAKE CHABOT ROAD,CASTRO VALLEY,CA,94546,GENERAL ACUTE CARE,OPEN,ALAMEDA,USA,37.69773234,-122.0888691,"Kaiser, Alameda Alliance for Health"
TELECARE WILLOW ROCK CENTER,2050 FAIRMONT DRIVE,ALAMEDA,CA,94578,PSYCHIATRIC,OPEN,ALAMEDA,USA,37.70941003,-122.1185459,"Kaiser, Alameda Alliance for Health"
MPI CHEMICAL DEPENDENCY RECOVERY HOSPITAL,"3012 SUMMIT STREET,5TH FLOOR",OAKLAND,CA,94609,REHABILITATION,OPEN,ALAMEDA,USA,37.8193271,-122.2640875,"Kaiser, Alameda Alliance for Health"
THUNDER ROAD CHEMICAL DEPENDENCY RECOVERY HOSPITAL,390 40TH STREET,OAKLAND,CA,94609,REHABILITATION,OPEN,ALAMEDA,USA,37.82873934,-122.2593071,"Kaiser, Alameda Alliance for Health"
ALAMEDA CO MED CTR - FAIRMONT CAMPUS,15400 FOOTHILL BOULEVARD,SAN LEANDRO,CA,94578,GENERAL ACUTE CARE,OPEN,ALAMEDA,USA,37.70768456,-122.11871,"Kaiser, Alameda Alliance for Health"
ALAMEDA HOSPITAL,2070 CLINTON,ALAMEDA,CA,94501,GENERAL ACUTE CARE,OPEN,ALAMEDA,USA,37.76279436,-122.2542136,"Kaiser, Alameda Alliance for Health"
CHILDRENS HOSPITAL AND RESEARCH CTR AT OAKLAND,747 52ND STREET,OAKLAND,CA,94609,CHILDREN,OPEN,ALAMEDA,USA,37.83703736,-122.2674207,"Kaiser, Alameda Alliance for Health"
ALTA BATES SUMMIT MED CTR-ALTA BATES CAMPUS,2450 ASHBY STREET,BERKELEY,CA,94705,GENERAL ACUTE CARE,OPEN,ALAMEDA,USA,37.85587637,-122.2572657,"Kaiser, Alameda Alliance for Health"
ALAMEDA HOSPITAL-SOUTH SHORE CONVALESCENT HOSPITAL,625 WILLOW STREET,ALAMEDA,CA,94501,GENERAL ACUTE CARE,OPEN,ALAMEDA,USA,37.76184594,-122.2540476,"Kaiser, Alameda Alliance for Health"
ALTA BATES SUMMIT MED CTR-HERRICK CAMPUS,2001 DWIGHT WAY,BERKELEY,CA,94704,GENERAL ACUTE CARE,OPEN,ALAMEDA,USA,37.86441186,-122.2685776,"Kaiser, Alameda Alliance for Health"
ALTA BATES SUMMIT MED CTR-SUMMIT CAMPUS-HAWTHORNE,350 HAWTHORNE AVENUE,OAKLAND,CA,94609,GENERAL ACUTE CARE,OPEN,ALAMEDA,USA,37.82121586,-122.2630606,"Kaiser, Alameda Alliance for Health"
ALTA BATES SUMMIT MED CTR-SUMMIT CAMPUS-SUMMIT,3100 SUMMIT STREET,OAKLAND,CA,94609,GENERAL ACUTE CARE,OPEN,ALAMEDA,USA,37.82013961,-122.2640042,"Kaiser, Alameda Alliance for Health"
PARK BRIDGE REHABILITATION AND WELLNESS CENTER,2401 BLANDING AVENUE,ALAMEDA,CA,94501,GENERAL ACUTE CARE,OPEN,ALAMEDA,USA,37.77062863,-122.2370243,"Kaiser, Alameda Alliance for Health"
KAISER FND HOSP - FREMONT,39400 PASEO PADRE PARKWAY,FREMONT,CA,94538,GENERAL ACUTE CARE,OPEN,ALAMEDA,USA,37.55279037,-121.9750842,"Kaiser, Alameda Alliance for Health"
EAST BAY DIVISION - MARTINEZ OUTPATIENT CLINIC,150 MUIR RD,MARTINEZ,CA,94553,MILITARY,OPEN,CONTRA COSTA,USA,37.99436151,-122.1157858,"Kaiser, Contra Costa Health Plan"
JOHN MUIR BEHAVIORAL HEALTH CENTER,2740 GRANT STREET,CONCORD,CA,94520,PSYCHIATRIC,OPEN,CONTRA COSTA,USA,37.98598836,-122.0371023,"Kaiser, Contra Costa Health Plan"
JOHN MUIR MEDICAL CENTER-WALNUT CREEK CAMPUS,1601 YGNACIO VALLEY ROAD,WALNUT CREEK,CA,94598,GENERAL ACUTE CARE,OPEN,CONTRA COSTA,USA,37.91291021,-122.0412565,"Kaiser, Contra Costa Health Plan"
CONTRA COSTA REGIONAL MEDICAL CENTER,2500 ALHAMBRA AVENUE,MARTINEZ,CA,94553,GENERAL ACUTE CARE,OPEN,CONTRA COSTA,USA,38.00679801,-122.1328148,"Kaiser, Contra Costa Health Plan"
SUTTER DELTA MEDICAL CENTER,3901 LONE TREE WAY,ANTIOCH,CA,94509,GENERAL ACUTE CARE,OPEN,CONTRA COSTA,USA,37.98223445,-121.8029785,"Kaiser, Contra Costa Health Plan"
JOHN MUIR MEDICAL CENTER-CONCORD CAMPUS,2540 EAST STREET,CONCORD,CA,94520,GENERAL ACUTE CARE,OPEN,CONTRA COSTA,USA,37.98308958,-122.0334968,"Kaiser, Contra Costa Health Plan"
KAISER FND HOSP - RICHMOND CAMPUS,901 NEVIN,RICHMOND,CA,94804,GENERAL ACUTE CARE,OPEN,CONTRA COSTA,USA,37.93718466,-122.3613784,"Kaiser, Contra Costa Health Plan"
KAISER FND HOSP - WALNUT CREEK,1425 SOUTH MAIN STREET,WALNUT CREEK,CA,94596,GENERAL ACUTE CARE,OPEN,CONTRA COSTA,USA,37.89134636,-122.0588393,"Kaiser, Contra Costa Health Plan"
KAISER FOUND HSP-ANTIOCH,4501 SAND CREEK ROAD,ANTIOCH,CA,94531,GENERAL ACUTE CARE,OPEN,CONTRA COSTA,USA,37.95099113,-121.7751382,"Kaiser, Contra Costa Health Plan"
SAN RAMON REGIONAL MEDICAL CENTER SOUTH BUILDING,7777 NORRIS CANYON ROAD,SAN RAMON,CA,94583,GENERAL ACUTE CARE,OPEN,CONTRA COSTA,USA,37.77459185,-121.957279,"Kaiser, Contra Costa Health Plan"
SAN RAMON REGIONAL MEDICAL CENTER,6001 NORRIS CANYON ROAD,SAN RAMON,CA,94583,GENERAL ACUTE CARE,OPEN,CONTRA COSTA,USA,37.77587949,-121.9581807,"Kaiser, Contra Costa Health Plan"
COMMUNITY REGIONAL MEDICAL CENTER-FRESNO,2823 FRESNO AND R STREETS,FRESNO,CA,93721,GENERAL ACUTE CARE,OPEN,FRESNO,USA,36.74389038,-119.7852398,"Anthem Blue Cross, Kaiser, CalViva"
COMMUNITY SUBACUTE AND TRANSITIONAL CARE CENTER,3003 NORTH MARIPOSA STREET,FRESNO,CA,93703,GENERAL ACUTE CARE,OPEN,FRESNO,USA,36.77771535,-119.7796771,"Anthem Blue Cross, Kaiser, CalViva"
ADVENTIST MEDICAL CENTER - REEDLEY,372 WEST CYPRESS AVENUE,REEDLEY,CA,93654,GENERAL ACUTE CARE,OPEN,FRESNO,USA,36.60826833,-119.4521494,"Anthem Blue Cross, Kaiser, CalViva"
COALINGA REGIONAL MEDICAL CENTER,1191 PHELPS AVENUE,COALINGA,CA,93210,GENERAL ACUTE CARE,OPEN,FRESNO,USA,36.15247112,-120.340684,"Anthem Blue Cross, Kaiser, CalViva"
CLOVIS COMMUNITY MEDICAL CENTER,2755 HERNDON AVENUE,CLOVIS,CA,93612,GENERAL ACUTE CARE,OPEN,FRESNO,USA,36.8390899,-119.6604767,"Anthem Blue Cross, Kaiser, CalViva"
ADVENTIST MEDICAL CENTER-SELMA,1141 ROSE AVENUE,SELMA,CA,93662,GENERAL ACUTE CARE,OPEN,FRESNO,USA,36.56786704,-119.5986674,"Anthem Blue Cross, Kaiser, CalViva"
DEPARTMENT OF STATE HOSPITAL - COALINGA,24511 WEST JAYNE AVENUE,COALINGA,CA,93210,PSYCHIATRIC,OPEN,FRESNO,USA,36.13354829,-120.240446,"Anthem Blue Cross, Kaiser, CalViva"
SAN JOAQUIN VALLEY REHABILITATION HOSPITAL,7173 NO. SHARON AVENUE,FRESNO,CA,93720,GENERAL ACUTE CARE,OPEN,FRESNO,USA,36.83997451,-119.7605535,"Anthem Blue Cross, Kaiser, CalViva"
KAISER FND HOSP - FRESNO,7300 NORTH FRESNO STREET,FRESNO,CA,93720,GENERAL ACUTE CARE,OPEN,FRESNO,USA,36.84252969,-119.7803051,"Anthem Blue Cross, Kaiser, CalViva"
COMMUNITY BEHAVIORAL HEALTH CENTER,7171 NORTH CEDAR AVENUE,FRESNO,CA,93720,GENERAL ACUTE CARE,OPEN,FRESNO,USA,36.84040123,-119.7576623,"Anthem Blue Cross, Kaiser, CalViva"
FRESNO HEART AND SURGICAL HOSPITAL,15 E. AUDUBON DRIVE,FRESNO,CA,93720,GENERAL ACUTE CARE,OPEN,FRESNO,USA,36.86088585,-119.7892519,"Anthem Blue Cross, Kaiser, CalViva"
FRESNO SURGICAL HOSPITAL,6125 NORTH FRESNO STREET,FRESNO,CA,93710,GENERAL ACUTE CARE,OPEN,FRESNO,USA,36.82491409,-119.7821616,"Anthem Blue Cross, Kaiser, CalViva"
VA CENTRAL CALIFORNIA HEALTH CARE SYSTEM,2615 E CLINTON AVE,FRESNO,CA,93703,MILITARY,OPEN,FRESNO,USA,36.77325043,-119.7791451,"Anthem Blue Cross, Kaiser, CalViva"
ST. AGNES MEDICAL CENTER,1303 EAST HERNDON AVENUE,FRESNO,CA,93720,GENERAL ACUTE CARE,OPEN,FRESNO,USA,36.83508748,-119.7657629,"Anthem Blue Cross, Kaiser, CalViva"
EXODUS PSYCHIATRIC HEALTH FACILITY FRESNO,4411 E. KINGS CANYON ROAD,FRESNO,CA,93702,PSYCHIATRIC,OPEN,FRESNO,USA,36.73728869,-119.7521877,"Anthem Blue Cross, Kaiser, CalViva"
MERCY SOUTHWEST HOSPITAL,400 OLD RIVER RD,BAKERSFIELD,CA,93311,GENERAL ACUTE CARE,OPEN,KERN,USA,35.35150429,-119.1124505,"Anthem Blue Cross, Kaiser, Kern Family Health"
SAN JOAQUIN COMMUNITY HOSPITAL,2615 CHESTER AVENUE,BAKERSFIELD,CA,93301,GENERAL ACUTE CARE,OPEN,KERN,USA,35.38339964,-119.0205238,"Anthem Blue Cross, Kaiser, Kern Family Health"
RIDGECREST REGIONAL HOSPITAL TRANSITIONAL CARE & REHABILITATION,1131 NO. CHINA LAKE BOULEVARD,RIDGECREST,CA,93555,REHABILITATION,OPEN,KERN,USA,35.64090045,-117.6726311,"Anthem Blue Cross, Kaiser, Kern Family Health"
RIDGECREST REGIONAL HOSPITAL,1081 NORTH CHINA LAKE BLVD.,RIDGECREST,CA,93555,GENERAL ACUTE CARE,OPEN,KERN,USA,35.64067202,-117.671251,"Anthem Blue Cross, Kaiser, Kern Family Health"
GOOD SAMARITAN HOSPITAL-BAKERSFIELD,901 OLIVE DRIVE,BAKERSFIELD,CA,93308,GENERAL ACUTE CARE,OPEN,KERN,USA,35.41174058,-119.0395905,"Anthem Blue Cross, Kaiser, Kern Family Health"
DELANO REGIONAL MEDICAL CENTER,1401 GARCES HIGHWAY,DELANO,CA,93215,GENERAL ACUTE CARE,OPEN,KERN,USA,35.76226418,-119.238822,"Anthem Blue Cross, Kaiser, Kern Family Health"
CRESTWOOD PSYCHIATRIC HEALTH FACILITY 2,"6700 EUCALYPTUS DRIVE,STE C",BAKERSFIELD,CA,93306,PSYCHIATRIC,OPEN,KERN,USA,35.36567811,-118.9297762,"Anthem Blue Cross, Kaiser, Kern Family Health"
HEALTHSOUTH BAKERSFIELD REHABILITATION HOSPITAL,5001 COMMERCE DRIVE,BAKERSFIELD,CA,93309,GENERAL ACUTE CARE,OPEN,KERN,USA,35.3671915,-119.0576718,"Anthem Blue Cross, Kaiser, Kern Family Health"
KERN VALLEY HEALTHCARE DISTRICT,6412 LAUREL AVENUE,LAKE ISABELLA,CA,93240,GENERAL ACUTE CARE,OPEN,KERN,USA,35.6350283,-118.4069917,"Anthem Blue Cross, Kaiser, Kern Family Health"
KERN MEDICAL CENTER,1700 MOUNT VERNON AVENUE,BAKERSFIELD,CA,93306,GENERAL ACUTE CARE,OPEN,KERN,USA,35.38249885,-118.9697737,"Anthem Blue Cross, Kaiser, Kern Family Health"
MERCY HOSPITAL - BAKERSFIELD,2215 TRUXTUN AVENUE,BAKERSFIELD,CA,93301,GENERAL ACUTE CARE,OPEN,KERN,USA,35.37286364,-119.0277046,"Anthem Blue Cross, Kaiser, Kern Family Health"
ADVENTIST HEALTH MEDICAL CENTER TEHACHAPI VALLEY,115 WEST E STREET,TEHACHAPI,CA,93561,GENERAL ACUTE CARE,OPEN,KERN,USA,35.13034378,-118.4487369,"Anthem Blue Cross, Kaiser, Kern Family Health"
"BAKERSFIELD BEHAVORIAL HEALTHCARE HOSPITAL, LLC",5201 WHITE LANE,BAKERSFIELD,CA,93309,PSYCHIATRIC,OPEN,KERN,USA,35.31672358,-119.0605346,"Anthem Blue Cross, Kaiser, Kern Family Health"
BAKERSFIELD MEMORIAL HOSPITAL- 34TH STREET,420 - 34TH STREET,BAKERSFIELD,CA,93301,GENERAL ACUTE CARE,OPEN,KERN,USA,35.39134233,-119.0068733,"Anthem Blue Cross, Kaiser, Kern Family Health"
BAKERSFIELD HEART HOSPITAL,3001 SILLECT AVENUE,BAKERSFIELD,CA,93308,GENERAL ACUTE CARE,OPEN,KERN,USA,35.38482961,-119.0399964,"Anthem Blue Cross, Kaiser, Kern Family Health"
COLLEGE MEDICAL CENTER SOUTH CAMPUS D/P APH,1725 PACIFIC AVENUE,LONG BEACH,CA,90813,GENERAL ACUTE CARE,OPEN,LOS ANGELES,USA,33.78828429,-118.1941391,"Health Net, Kaiser, LA Care"
KINDRED HOSPITAL BALDWIN PARK,14148 FRANCISQUITO AVENUE,BALDWIN PARK,CA,91706,GENERAL ACUTE CARE,OPEN,LOS ANGELES,USA,34.06303893,-117.9674378,"Health Net, Kaiser, LA Care"
SILVER LAKE MEDICAL CENTER-INGLESIDE CAMPUS,7500 EAST HELLMAN AVENUE,ROSEMEAD,CA,91770,GENERAL ACUTE CARE,OPEN,LOS ANGELES,USA,34.06956607,-118.1056884,"Health Net, Kaiser, LA Care"
KINDRED HOSPITAL SOUTH BAY,1246 WEST 155TH STREET,GARDENA,CA,90247,GENERAL ACUTE CARE,OPEN,LOS ANGELES,USA,33.89008644,-118.2974383,"Health Net, Kaiser, LA Care"
LA CASA PSYCHIATRIC HEALTH FACILITY,6060 PARAMOUNT BLVD.,LONG BEACH,CA,90805,PSYCHIATRIC,OPEN,LOS ANGELES,USA,33.86508146,-118.1562741,"Health Net, Kaiser, LA Care"
LAC+USC MEDICAL CENTER,1200 NORTH STATE STREET,LOS ANGELES,CA,90033,GENERAL ACUTE CARE,OPEN,LOS ANGELES,USA,34.05956159,-118.2083566,"Health Net, Kaiser, LA Care"
LAC/HARBOR-UCLA MEDICAL CENTER,1000 WEST CARSON STREET,TORRANCE,CA,90502,GENERAL ACUTE CARE,OPEN,LOS ANGELES,USA,33.83047377,-118.2917138,"Health Net, Kaiser, LA Care"
LAC/RANCHO LOS AMIGOS NATIONAL REHAB CENTER,7601 EAST IMPERIAL HIGHWAY,DOWNEY,CA,90242,GENERAL ACUTE CARE,OPEN,LOS ANGELES,USA,33.9284015,-118.1588787,"Health Net, Kaiser, LA Care"
LAKEWOOD REGIONAL MEDICAL CENTER,3700 EAST SOUTH STREET,LAKEWOOD,CA,90712,GENERAL ACUTE CARE,OPEN,LOS ANGELES,USA,33.85970662,-118.148403,"Health Net, Kaiser, LA Care"
KINDRED HOSPITAL - SAN GABRIEL VALLEY,845 NORTH LARK ELLEN AVENUE,WEST COVINA,CA,91791,GENERAL ACUTE CARE,OPEN,LOS ANGELES,USA,34.0871916,-117.9172512,"Health Net, Kaiser, LA Care"
SHRINERS HOSPITAL FOR  CHILDREN - L.A.,3160 GENEVA STREET,LOS ANGELES,CA,90020,GENERAL ACUTE CARE,OPEN,LOS ANGELES,USA,34.06720478,-118.2863921,"Health Net, Kaiser, LA Care"
WHITTIER HOSPITAL MEDICAL CENTER,9080 COLIMA ROAD,WHITTIER,CA,90605,GENERAL ACUTE CARE,OPEN,LOS ANGELES,USA,33.95016303,-118.003961,"Health Net, Kaiser, LA Care"
SHERMAN OAKS HOSPITAL,4929 VAN NUYS BOULEVARD,SHERMAN OAKS,CA,91403,GENERAL ACUTE CARE,OPEN,LOS ANGELES,USA,34.16019496,-118.449414,"Health Net, Kaiser, LA Care"
SEPULVEDA AMBULATORY CARE CENTER,16111 PLUMMER ST,LOS ANGELES,CA,91343,MILITARY,OPEN,LOS ANGELES,USA,34.24438639,-118.4820418,"Health Net, Kaiser, LA Care"
LONG BEACH MEMORIAL MEDICAL CENTER,2801 ATLANTIC AVENUE,LONG BEACH,CA,90806,GENERAL ACUTE CARE,OPEN,LOS ANGELES,USA,33.80819537,-118.1869299,"Health Net, Kaiser, LA Care"
LOS ANGELES AMBULATORY CARE CENTER,351 E TEMPLE ST,LOS ANGELES,CA,90012,MILITARY,OPEN,LOS ANGELES,USA,34.05201504,-118.2384205,"Health Net, Kaiser, LA Care"
SILVER LAKE MEDICAL CENTER-DOWNTOWN CAMPUS,1711 WEST TEMPLE STREET,LOS ANGELES,CA,90026,GENERAL ACUTE CARE,OPEN,LOS ANGELES,USA,34.06966945,-118.2635258,"Health Net, Kaiser, LA Care"
"AURORA LAS ENCINAS HOSPITAL, LLC",2900 EAST DEL MAR BOULEVARD,PASADENA,CA,91107,PSYCHIATRIC,OPEN,LOS ANGELES,USA,34.14164966,-118.0909706,"Health Net, Kaiser, LA Care"
KINDRED HOSPITAL - LOS ANGELES,5525 WEST SLAUSON AVENUE,LOS ANGELES,CA,90056,GENERAL ACUTE CARE,OPEN,LOS ANGELES,USA,33.99013059,-118.3784511,"Health Net, Kaiser, LA Care"
LOS ANGELES COMMUNITY HOSPITAL,4081 EAST OLYMPIC BOULEVARD,LOS ANGELES,CA,90023,GENERAL ACUTE CARE,OPEN,LOS ANGELES,USA,34.01934631,-118.1865137,"Health Net, Kaiser, LA Care"
KAISER FND HOSP - MENTAL HEALTH CENTER,765 COLLEGE STREET,LOS ANGELES,CA,90012,GENERAL ACUTE CARE,OPEN,LOS ANGELES,USA,34.06689734,-118.2434019,"Health Net, Kaiser, LA Care"
BELLWOOD HEALTH CENTER,17800 WOODRUFF AVENUE,BELLFLOWER,CA,90706,PSYCHIATRIC,OPEN,LOS ANGELES,USA,33.87120707,-118.1166336,"Health Net, Kaiser, LA Care"
ST. FRANCIS MEDICAL CENTER,3630 IMPERIAL HIGHWAY,LYNWOOD,CA,90262,GENERAL ACUTE CARE,OPEN,LOS ANGELES,USA,33.92957184,-118.2032796,"Health Net, Kaiser, LA Care"
BARLOW RESPIRATORY HOSPITAL,2000 STADIUM WAY,LOS ANGELES,CA,90026,GENERAL ACUTE CARE,OPEN,LOS ANGELES,USA,34.07609658,-118.2483613,"Health Net, Kaiser, LA Care"
KAISER PERMANENTE BALDWIN PARK MEDICAL CENTER,1011 BALDWIN PARK BLVD.,BALDWIN PARK,CA,91706,GENERAL ACUTE CARE,OPEN,LOS ANGELES,USA,34.06534422,-117.9856952,"Health Net, Kaiser, LA Care"
KAISER PERMANENTE DOWNEY MEDICAL CENTER,9333 IMPERIAL HIGHWAY,DOWNEY,CA,90242,GENERAL ACUTE CARE,OPEN,LOS ANGELES,USA,33.91950679,-118.1289979,"Health Net, Kaiser, LA Care"
KAISER PERMANENTE LOS ANGELES MEDICAL CENTER,4867 SUNSET BOULEVARD,LOS ANGELES,CA,90027,GENERAL ACUTE CARE,OPEN,LOS ANGELES,USA,34.09857365,-118.2941753,"Health Net, Kaiser, LA Care"
SOUTHERN CALIFORNIA HOSPITAL AT CULVER CITY,3828 DELMAS TERRACE,CULVER CITY,CA,90231,GENERAL ACUTE CARE,OPEN,LOS ANGELES,USA,34.02317952,-118.3969894,"Health Net, Kaiser, LA Care"
SOUTHERN CALIFORNIA HOSPITAL AT VAN NUYS D/P APH,14433 EMELITA STREET,VAN NUYS,CA,91401,GENERAL ACUTE CARE,OPEN,LOS ANGELES,USA,34.1769007,-118.4474908,"Health Net, Kaiser, LA Care"
KAISER PERMANENTE SOUTH BAY,25825 SOUTH VERMONT AVENUE,HARBOR CITY,CA,90710,GENERAL ACUTE CARE,OPEN,LOS ANGELES,USA,33.78859527,-118.2959827,"Health Net, Kaiser, LA Care"
COLLEGE MEDICAL CENTER HAWTHORNE CAMPUS,13300 SO. HAWTHORNE BOULEVARD,HAWTHORNE,CA,90250,GENERAL ACUTE CARE,OPEN,LOS ANGELES,USA,33.9117288,-118.3520439,"Health Net, Kaiser, LA Care"
KAISER PERMANENTE WOODLAND HILLS MEDICAL CENTER,5601 DE SOTO AVENUE,WOODLAND HILLS,CA,91367,GENERAL ACUTE CARE,OPEN,LOS ANGELES,USA,34.1703945,-118.5896872,"Health Net, Kaiser, LA Care"
KECK HOSPITAL OF USC,1500 SAN PABLO STREET,LOS ANGELES,CA,90033,GENERAL ACUTE CARE,OPEN,LOS ANGELES,USA,34.06202984,-118.2013106,"Health Net, Kaiser, LA Care"
KEDREN COMMUNITY MENTAL HEALTH CENTER,4211 SOUTH AVALON BOULEVARD,LOS ANGELES,CA,90011,PSYCHIATRIC,OPEN,LOS ANGELES,USA,34.00729948,-118.2662101,"Health Net, Kaiser, LA Care"
SOUTHERN CALIFORNIA HOSPITAL AT HOLLYWOOD,6245 DE LONGPRE AVENUE,HOLLYWOOD,CA,90028,GENERAL ACUTE CARE,OPEN,LOS ANGELES,USA,34.09639136,-118.3252349,"Health Net, Kaiser, LA Care"
KINDRED HOSPITAL - LA MIRADA,14900 EAST IMPERIAL HIGHWAY,LA MIRADA,CA,90637,GENERAL ACUTE CARE,OPEN,LOS ANGELES,USA,33.91636424,-118.0133539,"Health Net, Kaiser, LA Care"
KAISER PERMANENTE PANORAMA CITY,13652 CANTARA STREET,PANORAMA CITY,CA,91402,GENERAL ACUTE CARE,OPEN,LOS ANGELES,USA,34.21856419,-118.4302193,"Health Net, Kaiser, LA Care"
BEVERLY HOSPITAL,309 WEST BEVERLY BOULEVARD,MONTEBELLO,CA,90640,GENERAL ACUTE CARE,OPEN,LOS ANGELES,USA,34.01455951,-118.1004469,"Health Net, Kaiser, LA Care"
LOS ANGELES COMMUNITY HOSPITAL AT BELLFLOWER,9542 EAST ARTESIA BOULEVARD,BELLFLOWER,CA,90706,GENERAL ACUTE CARE,OPEN,LOS ANGELES,USA,33.87440848,-118.1296078,"Health Net, Kaiser, LA Care"
LOS ANGELES METROPOLITAN MEDICAL CENTER,2231 SOUTH WESTERN AVENUE,LOS ANGELES,CA,90018,GENERAL ACUTE CARE,OPEN,LOS ANGELES,USA,34.03514331,-118.309357,"Health Net, Kaiser, LA Care"
PACIFICA HOSPITAL OF THE VALLEY,9449 SAN FERNANDO ROAD,SUN VALLEY,CA,91352,GENERAL ACUTE CARE,OPEN,LOS ANGELES,USA,34.24009834,-118.3963629,"Health Net, Kaiser, LA Care"
PALMDALE REGIONAL MEDICAL CENTER,38600 MEDICAL CENTER DRIVE,PALMDALE,CA,93551,GENERAL ACUTE CARE,OPEN,LOS ANGELES,USA,34.58287763,-118.1443669,"Health Net, Kaiser, LA Care"
WHITE MEMORIAL MEDICAL CENTER,1720 CESAR E. CHAVEZ AVENUE,LOS ANGELES,CA,90033,GENERAL ACUTE CARE,OPEN,LOS ANGELES,USA,34.0491115,-118.2179995,"Health Net, Kaiser, LA Care"
ALHAMBRA HOSPITAL,100 SOUTH RAYMOND AVENUE,ALHAMBRA,CA,91801,GENERAL ACUTE CARE,OPEN,LOS ANGELES,USA,34.09021587,-118.1440348,"Health Net, Kaiser, LA Care"
PIH HOSPITAL - DOWNEY,11500 BROOKSHIRE AVENUE,DOWNEY,CA,90241,GENERAL ACUTE CARE,OPEN,LOS ANGELES,USA,33.9343518,-118.130904,"Health Net, Kaiser, LA Care"
RESNICK NEUROPSYCHIATRIC HOSPITAL AT UCLA,150 MEDICAL PLAZA,LOS ANGELES,CA,90095,PSYCHIATRIC,OPEN,LOS ANGELES,USA,34.06540386,-118.4465877,"Health Net, Kaiser, LA Care"
POMONA VALLEY HOSPITAL MEDICAL CENTER,1798 NORTH GAREY AVENUE,POMONA,CA,91767,GENERAL ACUTE CARE,OPEN,LOS ANGELES,USA,34.07684882,-117.750552,"Health Net, Kaiser, LA Care"
PRESBYTERIAN INTERCOMMUNITY HOSPITAL,12401 EAST WASHINGTON BLVD.,WHITTIER,CA,90602,GENERAL ACUTE CARE,OPEN,LOS ANGELES,USA,33.96994342,-118.0499286,"Health Net, Kaiser, LA Care"
PROMISE HOSPITAL OF EAST LOS ANGELES-EAST L.A. CAMPUS,443 SOUTH SOTO STREET,LOS ANGELES,CA,90033,LONG TERM CARE,OPEN,LOS ANGELES,USA,34.03960373,-118.2127942,"Health Net, Kaiser, LA Care"
PROMISE HOSPITAL OF EAST LOS ANGELES-SUBURBAN CAMPUS,16453 SOUTH COLORADO AVENUE,PARAMOUNT,CA,90723,LONG TERM CARE,OPEN,LOS ANGELES,USA,33.88463186,-118.1622671,"Health Net, Kaiser, LA Care"
PROVIDENCE TARZANA MEDICAL CENTER,18321 CLARK STREET,TARZANA,CA,91356,GENERAL ACUTE CARE,OPEN,LOS ANGELES,USA,34.17039322,-118.5319041,"Health Net, Kaiser, LA Care"
PROVIDENCE HOLY CROSS MEDICAL CENTER,15031 RINALDI STREET,MISSION HILLS,CA,91345,GENERAL ACUTE CARE,OPEN,LOS ANGELES,USA,34.27954744,-118.4598077,"Health Net, Kaiser, LA Care"
PROVIDENCE LITTLE COMPANY OF MARY MC - SAN PEDRO,1300 WEST SEVENTH STREET,SAN PEDRO,CA,90732,GENERAL ACUTE CARE,OPEN,LOS ANGELES,USA,33.73842307,-118.3050044,"Health Net, Kaiser, LA Care"
PROVIDENCE LITTLE COMPANY OF MARY MC - TORRANCE,4101 TORRANCE BOULEVARD,TORRANCE,CA,90503,GENERAL ACUTE CARE,OPEN,LOS ANGELES,USA,33.8384929,-118.3572972,"Health Net, Kaiser, LA Care"
PROVIDENCE LITTLE COMPANY OF MARY SUBACUTE CARE CENTER,1322 WEST 6TH STREET,SAN PEDRO,CA,90732,GENERAL ACUTE CARE,OPEN,LOS ANGELES,USA,33.73901823,-118.3062738,"Health Net, Kaiser, LA Care"
PROVIDENCE LITTLE COMPANY OF MARY TRANSITIONAL CARE CENTER,4320 MARICOPA STREET,TORRANCE,CA,90503,GENERAL ACUTE CARE,OPEN,LOS ANGELES,USA,33.83934812,-118.3597215,"Health Net, Kaiser, LA Care"
RONALD REAGAN UCLA MEDICAL CENTER,757 WESTWOOD PLAZA,LOS ANGELES,CA,90095,GENERAL ACUTE CARE,OPEN,LOS ANGELES,USA,34.06655438,-118.4466251,"Health Net, Kaiser, LA Care"
"PACIFIC ALLIANCE MEDICAL CENTER, INC.",531 WEST COLLEGE STREET,LOS ANGELES,CA,90012,GENERAL ACUTE CARE,OPEN,LOS ANGELES,USA,34.06488002,-118.2392278,"Health Net, Kaiser, LA Care"
OLYMPIA MEDICAL CENTER,5900 WEST OLYMPIA BLVD,LOS ANGELES,CA,90036,GENERAL ACUTE CARE,OPEN,LOS ANGELES,USA,34.05729227,-118.3605273,"Health Net, Kaiser, LA Care"
SAN DIMAS COMMUNITY HOSPITAL,1350 WEST COVINA BOULEVARD,SAN DIMAS,CA,91773,GENERAL ACUTE CARE,OPEN,LOS ANGELES,USA,34.09750932,-117.8346358,"Health Net, Kaiser, LA Care"
SANTA MONICA - UCLA MEDICAL CENTER & ORTHOPAEDIC HOSPITAL,1250 16TH STREET,SANTA MONICA,CA,90404,GENERAL ACUTE CARE,OPEN,LOS ANGELES,USA,34.02770868,-118.4868924,"Health Net, Kaiser, LA Care"
AURORA CHARTER OAK,1161 EAST COVINA BOULEVARD,COVINA,CA,91724,PSYCHIATRIC,OPEN,LOS ANGELES,USA,34.09980534,-117.8664786,"Health Net, Kaiser, LA Care"
MARINA DEL REY HOSPITAL,4650 LINCOLN BOULEVARD,MARINA DEL REY,CA,90291,GENERAL ACUTE CARE,OPEN,LOS ANGELES,USA,33.98216162,-118.4392322,"Health Net, Kaiser, LA Care"
"MARTIN LUTHER KING, JR. COMMUNITY HOSPITAL",1680 EAST 120TH STREET,LOS ANGELES,CA,90059,GENERAL ACUTE CARE,OPEN,LOS ANGELES,USA,33.92263707,-118.2438013,"Health Net, Kaiser, LA Care"
WEST HILLS HOSPITAL AND MEDICAL CENTER,7300 MEDICAL CENTER DRIVE,WEST HILLS,CA,91307,GENERAL ACUTE CARE,OPEN,LOS ANGELES,USA,34.20285942,-118.6286237,"Health Net, Kaiser, LA Care"
MEMORIAL HOSPITAL OF GARDENA,1145 W. REDONDO BEACH BLVD.,GARDENA,CA,90247,GENERAL ACUTE CARE,OPEN,LOS ANGELES,USA,33.89296488,-118.2947835,"Health Net, Kaiser, LA Care"
ANTELOPE VALLEY HOSPITAL,1600 WEST AVENUE J,LANCASTER,CA,93534,GENERAL ACUTE CARE,OPEN,LOS ANGELES,USA,34.68826898,-118.158826,"Health Net, Kaiser, LA Care"
METHODIST HOSPITAL OF SOUTHERN CALIFORNIA,300 WEST HUNTINGTON DRIVE,ARCADIA,CA,91007,GENERAL ACUTE CARE,OPEN,LOS ANGELES,USA,34.13448746,-118.0417117,"Health Net, Kaiser, LA Care"
LOS ANGELES COUNTY OLIVE VIEW-UCLA MEDICAL CENTER,14445 OLIVE VIEW DRIVE,SYLMAR,CA,91342,GENERAL ACUTE CARE,OPEN,LOS ANGELES,USA,34.32587172,-118.4457641,"Health Net, Kaiser, LA Care"
MIRACLE MILE MEDICAL CENTER,6000 SAN VICENTE BOULEVARD,LOS ANGELES,CA,90036,GENERAL ACUTE CARE,OPEN,LOS ANGELES,USA,34.05736635,-118.3624586,"Health Net, Kaiser, LA Care"
MONROVIA MEMORIAL HOSPITAL,323 SOUTH HELIOTROPE AVENUE,MONROVIA,CA,91016,GENERAL ACUTE CARE,OPEN,LOS ANGELES,USA,34.14875866,-117.9926677,"Health Net, Kaiser, LA Care"
AMERICAN RECOVERY CENTER,2180 WEST VALLEY BOULEVARD,POMONA,CA,91768,REHABILITATION,OPEN,LOS ANGELES,USA,34.06099257,-117.7906359,"Health Net, Kaiser, LA Care"
MONTEREY PARK HOSPITAL,900 SOUTH ATLANTIC BOULEVARD,MONTEREY PARK,CA,91754,GENERAL ACUTE CARE,OPEN,LOS ANGELES,USA,34.04946606,-118.1382622,"Health Net, Kaiser, LA Care"
MOTION PICTURE AND TELEVISION HOSPITAL,23388 MULHOLLAND DRIVE,WOODLAND HILLS,CA,91364,GENERAL ACUTE CARE,OPEN,LOS ANGELES,USA,34.15797825,-118.6366359,"Health Net, Kaiser, LA Care"
WEST LOS ANGELES MEDICAL CENTER,11301 WILSHIRE BLVD,LOS ANGELES,CA,90073,MILITARY,OPEN,LOS ANGELES,USA,34.05272127,-118.4527522,"Health Net, Kaiser, LA Care"
SAN GABRIEL VALLEY MEDICAL CENTER,438 W. LAS TUNAS DRIVE,SAN GABRIEL,CA,91776,GENERAL ACUTE CARE,OPEN,LOS ANGELES,USA,34.10086879,-118.1059188,"Health Net, Kaiser, LA Care"
NORTHRIDGE HOSPITAL MEDICAL CENTER,18300 ROSCOE BOULEVARD,NORTHRIDGE,CA,91328,GENERAL ACUTE CARE,OPEN,LOS ANGELES,USA,34.21982493,-118.5330682,"Health Net, Kaiser, LA Care"
NORWALK COMMUNITY HOSPITAL,13222 BLOOMFIELD AVENUE,NORWALK,CA,90650,GENERAL ACUTE CARE,OPEN,LOS ANGELES,USA,33.91067119,-118.0641243,"Health Net, Kaiser, LA Care"
MISSION COMMUNITY HOSPITAL - PANORAMA CAMPUS,14850 ROSCOE BOULEVARD,PANORAMA CITY,CA,91402,GENERAL ACUTE CARE,OPEN,LOS ANGELES,USA,34.22041456,-118.4566694,"Health Net, Kaiser, LA Care"
BHC ALHAMBRA HOSPITAL,4619 ROSEMEAD BOULEVARD,ROSEMEAD,CA,91770,PSYCHIATRIC,OPEN,LOS ANGELES,USA,34.08843641,-118.0740155,"Health Net, Kaiser, LA Care"
KAISER PERMANENTE WEST LOS ANGELES MEDICAL CENTER,6041 CADILLAC AVENUE,LOS ANGELES,CA,90034,GENERAL ACUTE CARE,OPEN,LOS ANGELES,USA,34.03849668,-118.3746964,"Health Net, Kaiser, LA Care"
ST. MARY MEDICAL CENTER,"1050 LINDEN AVENUE, BOX 887",LONG BEACH,CA,90801,GENERAL ACUTE CARE,OPEN,LOS ANGELES,USA,33.78042338,-118.1861154,"Health Net, Kaiser, LA Care"
EXODUS RECOVERY PHF,9808 VENICE BLVD,CULVER CITY,CA,90232,PSYCHIATRIC,OPEN,LOS ANGELES,USA,34.02341366,-118.3979472,"Health Net, Kaiser, LA Care"
VALLEY PRESBYTERIAN HOSPITAL,15107 VAN OWEN STREET,VAN NUYS,CA,91405,GENERAL ACUTE CARE,OPEN,LOS ANGELES,USA,34.1949895,-118.4630213,"Health Net, Kaiser, LA Care"
FOOTHILL PRESBYTERIAN HOSPITAL-JOHNSTON MEMORIAL,250 SOUTH GRAND AVENUE,GLENDORA,CA,91741,GENERAL ACUTE CARE,OPEN,LOS ANGELES,USA,34.13265458,-117.8712597,"Health Net, Kaiser, LA Care"
USC VERDUGO HILLS HOSPITAL,1812 VERDUGO BOULEVARD,GLENDALE,CA,91208,GENERAL ACUTE CARE,OPEN,LOS ANGELES,USA,34.20488886,-118.21598,"Health Net, Kaiser, LA Care"
CENTINELA HOSPITAL MEDICAL CENTER,555 EAST HARDY STREET,INGLEWOOD,CA,90301,GENERAL ACUTE CARE,OPEN,LOS ANGELES,USA,33.95044443,-118.348236,"Health Net, Kaiser, LA Care"
CEDARS SINAI MEDICAL CENTER,8700 BEVERLY BOULEVARD,LOS ANGELES,CA,90048,GENERAL ACUTE CARE,OPEN,LOS ANGELES,USA,34.07629445,-118.3807121,"Health Net, Kaiser, LA Care"
GARDENS REGIONAL HOSPITAL AND MEDICAL CENTER,21530 SOUTH PIONEER BOULEVARD,HAWAIIAN GARDENS,CA,90716,GENERAL ACUTE CARE,OPEN,LOS ANGELES,USA,33.83364001,-118.079678,"Health Net, Kaiser, LA Care"
GARFIELD MEDICAL CENTER,525 NORTH GARFIELD AVENUE,MONTEREY PARK,CA,91754,GENERAL ACUTE CARE,OPEN,LOS ANGELES,USA,34.06816325,-118.1238573,"Health Net, Kaiser, LA Care"
GATEWAYS HOSPITAL AND MENTAL HEALTH CENTER,1891 EFFIE STREET,LOS ANGELES,CA,90026,PSYCHIATRIC,OPEN,LOS ANGELES,USA,34.0852414,-118.2565808,"Health Net, Kaiser, LA Care"
GLENDALE ADVENTIST MEDICAL CENTER - WILSON TERRACE,1509 EAST WILSON TERRACE,GLENDALE,CA,91206,GENERAL ACUTE CARE,OPEN,LOS ANGELES,USA,34.15036297,-118.2300638,"Health Net, Kaiser, LA Care"
GLENDALE MEMORIAL HOSPITAL AND HEALTH CENTER,1420 SOUTH CENTRAL AVENUE,GLENDALE,CA,91204,GENERAL ACUTE CARE,OPEN,LOS ANGELES,USA,34.12816563,-118.2566432,"Health Net, Kaiser, LA Care"
GLENDORA COMMUNITY HOSPITAL,150 WEST ROUTE 66,GLENDORA,CA,91740,GENERAL ACUTE CARE,OPEN,LOS ANGELES,USA,34.12748713,-117.8651379,"Health Net, Kaiser, LA Care"
CATALINA ISLAND MEDICAL CENTER,100 FALLS CANYON ROAD,AVALON,CA,90704,GENERAL ACUTE CARE,OPEN,LOS ANGELES,USA,33.33920404,-118.3307051,"Health Net, Kaiser, LA Care"
GOOD SAMARITAN HOSPITAL-LOS ANGELES,1225 WILSHIRE BOULEVARD,LOS ANGELES,CA,90017,GENERAL ACUTE CARE,OPEN,LOS ANGELES,USA,34.05467441,-118.2651585,"Health Net, Kaiser, LA Care"
CASA COLINA HOSPITAL FOR REHAB MEDICINE,255 EAST BONITA AVENUE,POMONA,CA,91767,GENERAL ACUTE CARE,OPEN,LOS ANGELES,USA,34.09809331,-117.7472756,"Health Net, Kaiser, LA Care"
ENCINO HOSPITAL MEDICAL CENTER,16237 VENTURA BOULEVARD,ENCINO,CA,91436,GENERAL ACUTE CARE,OPEN,LOS ANGELES,USA,34.1572271,-118.4870242,"Health Net, Kaiser, LA Care"
TARZANA TREATMENT CENTER,18646 OXNARD STREET,TARZANA,CA,91356,PSYCHIATRIC,OPEN,LOS ANGELES,USA,34.17944583,-118.5398562,"Health Net, Kaiser, LA Care"
CHILDREN'S HOSPITAL OF LOS ANGELES,4650 SUNSET BOULEVARD,LOS ANGELES,CA,90027,CHILDREN,OPEN,LOS ANGELES,USA,34.09763014,-118.2910376,"Health Net, Kaiser, LA Care"
EAST LOS ANGELES DOCTORS HOSPITAL,4060 WHITTIER BOULEVARD,LOS ANGELES,CA,90023,GENERAL ACUTE CARE,OPEN,LOS ANGELES,USA,34.0236473,-118.1841648,"Health Net, Kaiser, LA Care"
COLLEGE MEDICAL CENTER,2776 PACIFIC AVENUE,LONG BEACH,CA,90806,GENERAL ACUTE CARE,OPEN,LOS ANGELES,USA,33.80709287,-118.1933899,"Health Net, Kaiser, LA Care"
COMMUNITY HOSPITAL OF HUNTINGTON PARK,2623 EAST SLAUSON AVENUE,HUNTINGTON PARK,CA,90255,GENERAL ACUTE CARE,OPEN,LOS ANGELES,USA,33.98948957,-118.2241899,"Health Net, Kaiser, LA Care"
COMMUNITY HOSPITAL OF LONG BEACH,1720 TERMINO AVENUE,LONG BEACH,CA,90804,GENERAL ACUTE CARE,OPEN,LOS ANGELES,USA,33.78848636,-118.1452406,"Health Net, Kaiser, LA Care"
TORRANCE MEMORIAL MEDICAL CENTER,3330 WEST LOMITA BOULEVARD,TORRANCE,CA,90505,GENERAL ACUTE CARE,OPEN,LOS ANGELES,USA,33.81175422,-118.3442929,"Health Net, Kaiser, LA Care"
TOM REDGATE MEMORIAL RECOVERY CENTER,1775 CHESTNUT STREET,LONG BEACH,CA,90813,REHABILITATION,OPEN,LOS ANGELES,USA,33.78936752,-118.1966465,"Health Net, Kaiser, LA Care"
COLLEGE HOSPITAL,10802 COLLEGE PLACE,CERRITOS,CA,90701,PSYCHIATRIC,OPEN,LOS ANGELES,USA,33.88433527,-118.1029467,"Health Net, Kaiser, LA Care"
COAST PLAZA DOCTORS HOSPITAL,13100 SOUTH STUDEBAKER ROAD,NORWALK,CA,90650,GENERAL ACUTE CARE,OPEN,LOS ANGELES,USA,33.91269312,-118.0988216,"Health Net, Kaiser, LA Care"
GREATER EL MONTE COMMUNITY HOSPITAL,1701 SANTA ANITA AVENUE,SOUTH EL MONTE,CA,91733,GENERAL ACUTE CARE,OPEN,LOS ANGELES,USA,34.04803528,-118.0432949,"Health Net, Kaiser, LA Care"
CITY OF HOPE HELFORD CLINICAL RESEARCH HOSPITAL,1500 EAST DUARTE ROAD,DUARTE,CA,91010,GENERAL ACUTE CARE,OPEN,LOS ANGELES,USA,34.12980151,-117.971138,"Health Net, Kaiser, LA Care"
DEL AMO HOSPITAL,23700 CAMINO DEL SOL,TORRANCE,CA,90505,PSYCHIATRIC,OPEN,LOS ANGELES,USA,33.81026999,-118.3435175,"Health Net, Kaiser, LA Care"
CITRUS VALLEY MEDICAL CENTER - IC CAMPUS,210 W. SAN BERNARDINO ROAD,COVINA,CA,91723,GENERAL ACUTE CARE,OPEN,LOS ANGELES,USA,34.08830922,-117.8930216,"Health Net, Kaiser, LA Care"
DEPARTMENT OF STATE HOSPITAL-METROPOLITAN,11401 BLOOMFIELD AVENUE,NORWALK,CA,90650,PSYCHIATRIC,OPEN,LOS ANGELES,USA,33.92803135,-118.0679897,"Health Net, Kaiser, LA Care"
"DOCTORS HOSPITAL OF WEST COVINA, INC",725 SOUTH ORANGE AVENUE,WEST COVINA,CA,91790,GENERAL ACUTE CARE,OPEN,LOS ANGELES,USA,34.07136945,-117.944903,"Health Net, Kaiser, LA Care"
EARL AND LORRAINE MILLER CHILDRENS HOSPITAL,2801 ATLANTIC AVENUE,LONG BEACH,CA,90806,CHILDREN,OPEN,LOS ANGELES,USA,33.80817455,-118.1854576,"Health Net, Kaiser, LA Care"
"USC KENNETH NORRIS, JR. CANCER HOSPITAL",1441 EASTLAKE AVENUE,LOS ANGELES,CA,90033,GENERAL ACUTE CARE,OPEN,LOS ANGELES,USA,34.06135541,-118.2047855,"Health Net, Kaiser, LA Care"
CITRUS VALLEY MEDICAL CENTER - QV CAMPUS,1115 SOUTH SUNSET AVENUE,WEST COVINA,CA,91790,GENERAL ACUTE CARE,OPEN,LOS ANGELES,USA,34.06346308,-117.945666,"Health Net, Kaiser, LA Care"
STAR VIEW ADOLESCENT - P H F,4025 WEST 226 STREET,TORRANCE,CA,90505,PSYCHIATRIC,OPEN,LOS ANGELES,USA,33.82391446,-118.3560969,"Health Net, Kaiser, LA Care"
PROVIDENCE ST. JOHN'S HEALTH CENTER,2121 SANTA MONICA BLVD,SANTA MONICA,CA,90404,GENERAL ACUTE CARE,OPEN,LOS ANGELES,USA,34.03082595,-118.4794504,"Health Net, Kaiser, LA Care"
VA LONG BEACH HEALTHCARE SYSTEM,5901 E 7TH ST,LONG BEACH,CA,90822,MILITARY,OPEN,LOS ANGELES,USA,33.77663503,-118.1190786,"Health Net, Kaiser, LA Care"
HOLLYWOOD PRESBYTERIAN MEDICAL CENTER,1300 NORTH VERMONT AVENUE,LOS ANGELES,CA,90027,GENERAL ACUTE CARE,OPEN,LOS ANGELES,USA,34.09645102,-118.2904705,"Health Net, Kaiser, LA Care"
JOYCE EISENBERG KEEFER MEDICAL CENTER,7150 TAMPA AVENUE,RESEDA,CA,91335,PSYCHIATRIC,OPEN,LOS ANGELES,USA,34.20054599,-118.553148,"Health Net, Kaiser, LA Care"
"CALIFORNIA REHABILITATION INSTITUTE, LLC",2070 CENTURY PARK EAST,LOS ANGELES,CA,90067,GENERAL ACUTE CARE,OPEN,LOS ANGELES,USA,34.05910293,-118.4118681,"Health Net, Kaiser, LA Care"
CALIFORNIA HOSPITAL MEDICAL CENTER - LOS ANGELES,1401 SOUTH GRAND AVENUE,LOS ANGELES,CA,90015,GENERAL ACUTE CARE,OPEN,LOS ANGELES,USA,34.03735377,-118.2659761,"Health Net, Kaiser, LA Care"
ST. VINCENT MEDICAL CENTER,2131 WEST 3RD STREET,LOS ANGELES,CA,90057,GENERAL ACUTE CARE,OPEN,LOS ANGELES,USA,34.06387156,-118.2736145,"Health Net, Kaiser, LA Care"
HUNTINGTON MEMORIAL HOSPITAL,100 W. CALIFORNIA BOULEVARD,PASADENA,CA,91105,GENERAL ACUTE CARE,OPEN,LOS ANGELES,USA,34.13438536,-118.1529839,"Health Net, Kaiser, LA Care"
PROVIDENCE SAINT JOSEPH MEDICAL CENTER,501 SO. BUENA VISTA,BURBANK,CA,91505,GENERAL ACUTE CARE,OPEN,LOS ANGELES,USA,34.15704353,-118.3288691,"Health Net, Kaiser, LA Care"
HENRY MAYO NEWHALL MEMORIAL HOSPITAL,23845 WEST MCBEAN PARKWAY,VALENCIA,CA,91355,GENERAL ACUTE CARE,OPEN,LOS ANGELES,USA,34.39772694,-118.5538786,"Health Net, Kaiser, LA Care"
NEWPORT BAY HOSPITAL,1501 EAST 16TH STREET,NEWPORT BEACH,CA,92663,PSYCHIATRIC,OPEN,ORANGE,USA,33.62228516,-117.9075358,"Kaiser, CalOptima Health"
UNIVERSITY OF CALIFORNIA IRVINE MEDICAL CENTER,101 CITY DRIVE SOUTH,ORANGE,CA,92668,GENERAL ACUTE CARE,OPEN,ORANGE,USA,33.78878672,-117.8886634,"Kaiser, CalOptima Health"
CHILDREN'S HOSPITAL OF ORANGE COUNTY,1201 WEST LA VETA AVENUE,ORANGE,CA,92868,CHILDREN,OPEN,ORANGE,USA,33.78081013,-117.8657765,"Kaiser, CalOptima Health"
MISSION HOSPITAL LAGUNA BEACH,31872 S COAST HIGHWAY,LAGUNA BEACH,CA,92677,GENERAL ACUTE CARE,OPEN,ORANGE,USA,33.50066116,-117.7409066,"Kaiser, CalOptima Health"
HEALTHBRIDGE CHILDREN'S HOSPITAL-ORANGE,"393 S, TUSTIN STREET",ORANGE,CA,92866,CHILDREN,OPEN,ORANGE,USA,33.78272717,-117.8338919,"Kaiser, CalOptima Health"
ANAHEIM GLOBAL MEDICAL CENTER,1025 SOUTH ANAHEIM BLVD.,ANAHEIM,CA,92805,GENERAL ACUTE CARE,OPEN,ORANGE,USA,33.81973326,-117.9093552,"Kaiser, CalOptima Health"
CHILDREN'S HOSPITAL AT MISSION,"27700 MEDICAL CTR. RD.,5TH FL",MISSION VIEJO,CA,92691,CHILDREN,OPEN,ORANGE,USA,33.56040427,-117.6658226,"Kaiser, CalOptima Health"
CHAPMAN MEDICAL CENTER,2601 EAST CHAPMAN AVENUE,ORANGE,CA,92669,GENERAL ACUTE CARE,OPEN,ORANGE,USA,33.78861494,-117.8264132,"Kaiser, CalOptima Health"
KINDRED HOSPITAL - SANTA ANA,1901 NORTH COLLEGE AVENUE,SANTA ANA,CA,92706,GENERAL ACUTE CARE,OPEN,ORANGE,USA,33.7621497,-117.8915948,"Kaiser, CalOptima Health"
ORANGE COUNTY GLOBAL MEDICAL CENTER,1001 NORTH TUSTIN AVENUE,SANTA ANA,CA,92705,GENERAL ACUTE CARE,OPEN,ORANGE,USA,33.75438381,-117.8334228,"Kaiser, CalOptima Health"
ORANGE COAST MEMORIAL MEDICAL CENTER,9920 TALBERT AVENUE,FOUNTAIN VALLEY,CA,92708,GENERAL ACUTE CARE,OPEN,ORANGE,USA,33.70046195,-117.9558942,"Kaiser, CalOptima Health"
ST. JOSEPH HOSPITAL - ORANGE,1100 WEST STEWART DRIVE,ORANGE,CA,92868,GENERAL ACUTE CARE,OPEN,ORANGE,USA,33.7814698,-117.8642227,"Kaiser, CalOptima Health"
ST. JUDE MEDICAL CENTER,101 EAST VALENCIA MESA DRIVE,FULLERTON,CA,92835,GENERAL ACUTE CARE,OPEN,ORANGE,USA,33.89354835,-117.9274627,"Kaiser, CalOptima Health"
AHMC ANAHEIM REGIONAL MEDICAL CENTER,1111 WEST LA PALMA AVENUE,ANAHEIM,CA,92801,GENERAL ACUTE CARE,OPEN,ORANGE,USA,33.84815379,-117.9344477,"Kaiser, CalOptima Health"
PLACENTIA LINDA HOSPITAL,1301 NORTH ROSE DRIVE,PLACENTIA,CA,92670,GENERAL ACUTE CARE,OPEN,ORANGE,USA,33.88705175,-117.8432048,"Kaiser, CalOptima Health"
COLLEGE HOSPITAL COSTA MESA,301 VICTORIA STREET,COSTA MESA,CA,92627,GENERAL ACUTE CARE,OPEN,ORANGE,USA,33.65185454,-117.9118521,"Kaiser, CalOptima Health"
KAISER FND HOSP - ORANGE COUNTY - ANAHEIM,3440 E LA PALMA AVE,ANAHEIM,CA,92806,GENERAL ACUTE CARE,OPEN,ORANGE,USA,33.85198788,-117.8441945,"Kaiser, CalOptima Health"
KAISER FND HOSP - IRVINE,6640 ALTON PARKWAY,IRVINE,CA,92618,GENERAL ACUTE CARE,OPEN,ORANGE,USA,33.65823563,-117.7749278,"Kaiser, CalOptima Health"
SADDLEBACK MEMORIAL MEDICAL CENTER,24451 HEALTH CENTER DRIVE,LAGUNA HILLS,CA,92653,GENERAL ACUTE CARE,OPEN,ORANGE,USA,33.60897585,-117.7091282,"Kaiser, CalOptima Health"
WEST ANAHEIM MEDICAL CENTER,3033 WEST ORANGE AVENUE,ANAHEIM,CA,92804,GENERAL ACUTE CARE,OPEN,ORANGE,USA,33.82538521,-117.9950736,"Kaiser, CalOptima Health"
MISSION HOSPITAL REGIONAL MEDICAL CENTER,27700 MEDICAL CENTER ROAD,MISSION VIEJO,CA,92691,GENERAL ACUTE CARE,OPEN,ORANGE,USA,33.56054347,-117.6651445,"Kaiser, CalOptima Health"
HUNTINGTON BEACH HOSPITAL,17772 BEACH BOULEVARD,HUNTINGTON BEACH,CA,92647,GENERAL ACUTE CARE,OPEN,ORANGE,USA,33.70331242,-117.9878585,"Kaiser, CalOptima Health"
HOAG HOSPITAL IRVINE,16200 SAND CANYON AVENUE,IRVINE,CA,92718,GENERAL ACUTE CARE,OPEN,ORANGE,USA,33.66070177,-117.7724095,"Kaiser, CalOptima Health"
HOAG MEMORIAL HOSPITAL PRESBYTERIAN,ONE HOAG DRIVE,NEWPORT BEACH,CA,92663,GENERAL ACUTE CARE,OPEN,ORANGE,USA,33.62447112,-117.929302,"Kaiser, CalOptima Health"
"LAGUNA TREATMENT HOSPITAL, LLC",24552 PACIFIC PARK DRIVE,ALISO VIEJO,CA,92656,PSYCHIATRIC,OPEN,ORANGE,USA,33.57117142,-117.7012469,"Kaiser, CalOptima Health"
HOAG ORTHOPEDIC INSTITUTE,16250 SAND CANYON AVENUE,IRVINE,CA,92618,GENERAL ACUTE CARE,OPEN,ORANGE,USA,33.66039694,-117.7732064,"Kaiser, CalOptima Health"
LOS ALAMITOS MEDICAL CENTER,3751 KATELLA AVENUE,LOS ALAMITOS,CA,90720,GENERAL ACUTE CARE,OPEN,ORANGE,USA,33.80441349,-118.0671498,"Kaiser, CalOptima Health"
FOUNTAIN VALLEY RGNL HOSP AND MED CTR - WARNER,11250 WARNER AVENUE,FOUNTAIN VALLEY,CA,92708,GENERAL ACUTE CARE,OPEN,ORANGE,USA,33.71466444,-117.9345479,"Kaiser, CalOptima Health"
FAIRVIEW DEVELOPMENTAL CENTER,2501 HARBOR BOULEVARD,COSTA MESA,CA,92626,GENERAL ACUTE CARE,OPEN,ORANGE,USA,33.66344421,-117.9228031,"Kaiser, CalOptima Health"
LA PALMA INTERCOMMUNITY HOSPITAL,7901 WALKER STREET,LA PALMA,CA,90623,GENERAL ACUTE CARE,OPEN,ORANGE,USA,33.84751418,-118.0383023,"Kaiser, CalOptima Health"
GARDEN GROVE HOSPITAL AND MEDICAL CENTER,12601 GARDEN GROVE BLVD.,GARDEN GROVE,CA,92643,GENERAL ACUTE CARE,OPEN,ORANGE,USA,33.77498597,-117.9130929,"Kaiser, CalOptima Health"
KINDRED HOSPITAL BREA,875 NORTH BREA BOULEVARD,BREA,CA,92621,GENERAL ACUTE CARE,OPEN,ORANGE,USA,33.93449589,-117.8939488,"Kaiser, CalOptima Health"
SOUTH COAST GLOBAL MEDICAL CENTER,2701 BRISTOL STREET,SANTA ANA,CA,92704,GENERAL ACUTE CARE,OPEN,ORANGE,USA,33.71113399,-117.8846222,"Kaiser, CalOptima Health"
FOOTHILL REGIONAL MEDICAL CENTER,14662 NEWPORT AVENUE,TUSTIN,CA,92680,GENERAL ACUTE CARE,OPEN,ORANGE,USA,33.73025666,-117.8285716,"Kaiser, CalOptima Health"
HEALTHSOUTH TUSTIN REHABILITATION HOSPITAL,14851 YORBA STREET,TUSTIN,CA,92680,GENERAL ACUTE CARE,OPEN,ORANGE,USA,33.74746074,-117.8310556,"Kaiser, CalOptima Health"
KINDRED HOSPITAL WESTMINSTER,200 HOSPITAL CIRCLE,WESTMINSTER,CA,92683,GENERAL ACUTE CARE,OPEN,ORANGE,USA,33.76353321,-117.995256,"Kaiser, CalOptima Health"
FOUNTAIN VALLEY RGNL HOSP AND MED CTR - EUCLID,17100 EUCLID STREET,FOUNTAIN VALLEY,CA,92708,GENERAL ACUTE CARE,OPEN,ORANGE,USA,33.71493477,-117.9359695,"Kaiser, CalOptima Health"
CORONA REGIONAL MEDICAL CENTER-MAIN,800 SOUTH MAIN STREET,CORONA,CA,92882,GENERAL ACUTE CARE,OPEN,RIVERSIDE,USA,33.8730377,-117.5683209,"IEHP, Kaiser, Molina"
PACIFIC GROVE HOSPITAL,5900 BROCKTON AVENUE,RIVERSIDE,CA,92506,PSYCHIATRIC,OPEN,RIVERSIDE,USA,33.96230639,-117.3952935,"IEHP, Kaiser, Molina"
KINDRED HOSPITAL RIVERSIDE,2224 MEDICAL CENTER DRIVE,PERRIS,CA,92571,GENERAL ACUTE CARE,OPEN,RIVERSIDE,USA,33.81247771,-117.2223395,"IEHP, Kaiser, Molina"
HEMET VALLEY MEDICAL CENTER,1117 EAST DEVONSHIRE,HEMET,CA,92543,GENERAL ACUTE CARE,OPEN,RIVERSIDE,USA,33.7501697,-116.9601854,"IEHP, Kaiser, Molina"
RIVERSIDE COUNTY REGIONAL MEDICAL CENTER,26520 CACTUS AVENUE,MORENO VALLEY,CA,92555,GENERAL ACUTE CARE,OPEN,RIVERSIDE,USA,33.91191123,-117.1958298,"IEHP, Kaiser, Molina"
RIVERSIDE COUNTY REGIONAL MEDICAL CENTER - D/P APH,9990 COUNTY FARM ROAD,RIVERSIDE,CA,92503,GENERAL ACUTE CARE,OPEN,RIVERSIDE,USA,33.9190012,-117.4598561,"IEHP, Kaiser, Molina"
RIVERSIDE COMMUNITY HOSPITAL,4445 MAGNOLIA AVENUE,RIVERSIDE,CA,92501,GENERAL ACUTE CARE,OPEN,RIVERSIDE,USA,33.97655423,-117.3809889,"IEHP, Kaiser, Molina"
KAISER FND HOSP - RIVERSIDE,10800 MAGNOLIA AVENUE,RIVERSIDE,CA,92505,GENERAL ACUTE CARE,OPEN,RIVERSIDE,USA,33.90492377,-117.4692591,"IEHP, Kaiser, Molina"
PARKVIEW COMMUNITY HOSPITAL MEDICAL CENTER,3865 JACKSON STREET,RIVERSIDE,CA,92503,GENERAL ACUTE CARE,OPEN,RIVERSIDE,USA,33.92721645,-117.4393743,"IEHP, Kaiser, Molina"
CORONA REGIONAL MEDICAL CENTER-MAGNOLIA,730 MAGNOLIA AVENUE,CORONA,CA,92879,GENERAL ACUTE CARE,OPEN,RIVERSIDE,USA,33.85808331,-117.553858,"IEHP, Kaiser, Molina"
PALO VERDE HOSPITAL,250 NORTH FIRST STREET,BLYTHE,CA,92225,GENERAL ACUTE CARE,OPEN,RIVERSIDE,USA,33.61286177,-114.5951163,"IEHP, Kaiser, Molina"
HEMET VALLEY HEALTH CARE CENTER,371 WESTON PLACE,HEMET,CA,92543,GENERAL ACUTE CARE,OPEN,RIVERSIDE,USA,33.75244151,-116.9604387,"IEHP, Kaiser, Molina"
DESERT REGIONAL MEDICAL CENTER,1150 NORTH INDIAN CANYON DRIVE,PALM SPRINGS,CA,92262,GENERAL ACUTE CARE,OPEN,RIVERSIDE,USA,33.83866785,-116.5434536,"IEHP, Kaiser, Molina"
EISENHOWER MEDICAL CENTER,39-000 BOB HOPE DRIVE,RANCHO MIRAGE,CA,92270,GENERAL ACUTE CARE,OPEN,RIVERSIDE,USA,33.76335207,-116.4062411,"IEHP, Kaiser, Molina"
JOHN F KENNEDY MEMORIAL HOSPITAL,47-111 MONROE STREET,INDIO,CA,92201,GENERAL ACUTE CARE,OPEN,RIVERSIDE,USA,33.70656828,-116.2352581,"IEHP, Kaiser, Molina"
SOUTHWEST HEALTHCARE SYSTEM-MURRIETA,25500 MEDICAL CENTER DRIVE,MURRIETA,CA,92562,GENERAL ACUTE CARE,OPEN,RIVERSIDE,USA,33.55877691,-117.1840678,"IEHP, Kaiser, Molina"
MENIFEE VALLEY MEDICAL CENTER,28400 MCCALL BOULEVARD,SUN CITY,CA,92585,GENERAL ACUTE CARE,OPEN,RIVERSIDE,USA,33.71950227,-117.168033,"IEHP, Kaiser, Molina"
LOMA LINDA UNIVERSITY MEDICAL CENTER-MURRIETA,28062 BAXTER ROAD,MURRIETA,CA,92563,GENERAL ACUTE CARE,OPEN,RIVERSIDE,USA,33.61477694,-117.1690703,"IEHP, Kaiser, Molina"
KAISER FND HOSPITAL - MORENO VALLEY,27300 IRIS AVENUE,MORENO VALLEY,CA,92555,GENERAL ACUTE CARE,OPEN,RIVERSIDE,USA,33.89703207,-117.1860032,"IEHP, Kaiser, Molina"
TELECARE RIVERSIDE COUNTY PSYCHIATRIC HEALTH FACILITY,47-915 OASIS STREET,INDIO,CA,92201,PSYCHIATRIC,OPEN,RIVERSIDE,USA,33.70086462,-116.2216257,"IEHP, Kaiser, Molina"
TEMECULA VALLEY HOSPITAL,31700 TEMECULA PKWY,TEMECULA,CA,92592,GENERAL ACUTE CARE,OPEN,RIVERSIDE,USA,33.48046447,-117.1059546,"IEHP, Kaiser, Molina"
SOUTHWEST HEALTHCARE SYSTEM-WILDOMAR,36485 INLAND VALLEY,WILDOMAR,CA,92595,GENERAL ACUTE CARE,OPEN,RIVERSIDE,USA,33.59168162,-117.2376011,"IEHP, Kaiser, Molina"
THE BETTY FORD CENTER,39000 BOB HOPE DRIVE,RANCHO MIRAGE,CA,92270,REHABILITATION,OPEN,RIVERSIDE,USA,33.76230051,-116.4007058,"IEHP, Kaiser, Molina"
SAN GORGONIO MEMORIAL HOSPITAL,600 HIGHLAND SPRINGS AVENUE,BANNING,CA,92220,GENERAL ACUTE CARE,OPEN,RIVERSIDE,USA,33.93182075,-116.9461022,"IEHP, Kaiser, Molina"
MIDTOWN OAKS POST-ACUTE,2600 L STREET,SACRAMENTO,CA,95816,REHABILITATION,OPEN,SACRAMENTO,USA,38.57186985,-121.4725168,"Anthem Blue Cross,  Health Net, Kaiser, Molina"
METHODIST HOSPITAL OF SACRAMENTO,7500 HOSPITAL DRIVE,SACRAMENTO,CA,95823,GENERAL ACUTE CARE,OPEN,SACRAMENTO,USA,38.46354745,-121.4165264,"Anthem Blue Cross,  Health Net, Kaiser, Molina"
MERCY SAN JUAN HOSPITAL,6501 COYLE AVENUE,CARMICHAEL,CA,95608,GENERAL ACUTE CARE,OPEN,SACRAMENTO,USA,38.66982929,-121.3141082,"Anthem Blue Cross,  Health Net, Kaiser, Molina"
MERCY HOSPITAL - FOLSOM,1650 CREEKSIDE DRIVE,FOLSOM,CA,95630,GENERAL ACUTE CARE,OPEN,SACRAMENTO,USA,38.67031491,-121.1456769,"Anthem Blue Cross,  Health Net, Kaiser, Molina"
VIBRA HOSPITAL OF SACRAMENTO,330 MONTROSE DRIVE,FOLSOM,CA,95630,GENERAL ACUTE CARE,OPEN,SACRAMENTO,USA,38.68118058,-121.1582091,"Anthem Blue Cross,  Health Net, Kaiser, Molina"
MERCY GENERAL HOSPITAL,4001 J STREET,SACRAMENTO,CA,95819,GENERAL ACUTE CARE,OPEN,SACRAMENTO,USA,38.57006128,-121.4524684,"Anthem Blue Cross,  Health Net, Kaiser, Molina"
"SUTTER MEDICAL CENTER, SACRAMENTO",2825 CAPITOL AVE,SACRAMENTO,CA,95816,GENERAL ACUTE CARE,OPEN,SACRAMENTO,USA,38.57196715,-121.4692248,"Anthem Blue Cross,  Health Net, Kaiser, Molina"
SUTTER CENTER FOR PSYCHIATRY,7700 FOLSOM BOULEVARD,SACRAMENTO,CA,95826,PSYCHIATRIC,OPEN,SACRAMENTO,USA,38.54992593,-121.4146168,"Anthem Blue Cross,  Health Net, Kaiser, Molina"
KAISER FND HOSP - SACRAMENTO,2025 MORSE AVENUE,SACRAMENTO,CA,95825,GENERAL ACUTE CARE,OPEN,SACRAMENTO,USA,38.60179775,-121.393144,"Anthem Blue Cross,  Health Net, Kaiser, Molina"
CRESTWOOD PSYCHIATRIC HEALTH FACILITY-CARMICHAEL,4741 ENGLE ROAD,CARMICHAEL,CA,95608,PSYCHIATRIC,OPEN,SACRAMENTO,USA,38.6334945,-121.3545543,"Anthem Blue Cross,  Health Net, Kaiser, Molina"
CRESTWOOD PSYCHIATRIC HEALTH FACILITY-SACRAMENTO,"2600 STOCKTON BLVD,STE B",SACRAMENTO,CA,95817,PSYCHIATRIC,OPEN,SACRAMENTO,USA,38.55198584,-121.4564434,"Anthem Blue Cross,  Health Net, Kaiser, Molina"
VA MEDICAL CENTER - SACRAMENTO,10535 HOSPITAL WAY,MATHER,CA,95655,MILITARY,OPEN,SACRAMENTO,USA,38.57296625,-121.2964588,"Anthem Blue Cross,  Health Net, Kaiser, Molina"
UNIVERSITY OF CALIFORNIA DAVIS MEDICAL CENTER,2315 STOCKTON BOULEVARD,SACRAMENTO,CA,95817,GENERAL ACUTE CARE,OPEN,SACRAMENTO,USA,38.55492974,-121.4554555,"Anthem Blue Cross,  Health Net, Kaiser, Molina"
HERITAGE OAKS HOSPITAL,4250 AUBURN BLVD.,SACRAMENTO,CA,95841,PSYCHIATRIC,OPEN,SACRAMENTO,USA,38.64339455,-121.3646809,"Anthem Blue Cross,  Health Net, Kaiser, Molina"
SHRINERS HOSPITALS FOR CHILDREN NORTHERN CALIF.,2425 STOCKTON BLVD,SACRAMENTO,CA,95817,GENERAL ACUTE CARE,OPEN,SACRAMENTO,USA,38.55296329,-121.45533,"Anthem Blue Cross,  Health Net, Kaiser, Molina"
SACRAMENTO COUNTY MENTAL HEALTH TREATMENT CENTER,2150 STOCKTON BOULEVARD,SACRAMENTO,CA,95817,PSYCHIATRIC,OPEN,SACRAMENTO,USA,38.55719537,-121.460877,"Anthem Blue Cross,  Health Net, Kaiser, Molina"
SIERRA VISTA HOSPITAL,8001 BRUCEVILLE ROAD,SACRAMENTO,CA,95823,PSYCHIATRIC,OPEN,SACRAMENTO,USA,38.46678028,-121.4171117,"Anthem Blue Cross,  Health Net, Kaiser, Molina"
KAISER FND HOSP - SOUTH SACRAMENTO,6600 BRUCEVILLE ROAD,SACRAMENTO,CA,95823,GENERAL ACUTE CARE,OPEN,SACRAMENTO,USA,38.47063789,-121.4225467,"Anthem Blue Cross,  Health Net, Kaiser, Molina"
SHARP MARY BIRCH HOSPITAL FOR WOMEN AND NEWBORNS,3003 HEALTH CENTER DRIVE,SAN DIEGO,CA,92123,WOMEN,OPEN,SAN DIEGO,USA,32.79829578,-117.1549778,"Blue Shield, Community Health, Kaiser, Molina"
SHARP MCDONALD CENTER,7989 LINDA VISTA ROAD,SAN DIEGO,CA,92111,REHABILITATION,OPEN,SAN DIEGO,USA,32.80601161,-117.1544762,"Blue Shield, Community Health, Kaiser, Molina"
SHARP MEMORIAL HOSPITAL,7901 FROST STREET,SAN DIEGO,CA,92123,GENERAL ACUTE CARE,OPEN,SAN DIEGO,USA,32.79928435,-117.1544728,"Blue Shield, Community Health, Kaiser, Molina"
SHARP MESA VISTA HOSPITAL,7850 VISTA HILL AVENUE,SAN DIEGO,CA,92123,PSYCHIATRIC,OPEN,SAN DIEGO,USA,32.79562758,-117.1550963,"Blue Shield, Community Health, Kaiser, Molina"
KAISER FND HOSP - SAN DIEGO,4647 ZION AVENUE,SAN DIEGO,CA,92120,GENERAL ACUTE CARE,OPEN,SAN DIEGO,USA,32.79156258,-117.0951595,"Blue Shield, Community Health, Kaiser, Molina"
PROMISE HOSPITAL OF SAN DIEGO,5550 UNIVERSITY AVENUE,SAN DIEGO,CA,92105,LONG TERM CARE,OPEN,SAN DIEGO,USA,32.74944563,-117.0766322,"Blue Shield, Community Health, Kaiser, Molina"
GROSSMONT HOSPITAL,5555 GROSSMONT CENTER DRIVE,LA MESA,CA,91942,GENERAL ACUTE CARE,OPEN,SAN DIEGO,USA,32.78057044,-117.0067815,"Blue Shield, Community Health, Kaiser, Molina"
UC SAN DIEGO HEALTH HILLCREST - HILLCREST MEDICAL CENTER,200 WEST ARBOR DRIVE,SAN DIEGO,CA,92103,GENERAL ACUTE CARE,OPEN,SAN DIEGO,USA,32.75477023,-117.1657314,"Blue Shield, Community Health, Kaiser, Molina"
TRI-CITY MEDICAL CENTER,4002 VISTA WAY,OCEANSIDE,CA,92056,GENERAL ACUTE CARE,OPEN,SAN DIEGO,USA,33.1856204,-117.2902673,"Blue Shield, Community Health, Kaiser, Molina"
FALLBROOK HOSPITAL DISTRICT,624 EAST ELDER STREET,FALLBROOK,CA,92028,GENERAL ACUTE CARE,OPEN,SAN DIEGO,USA,33.38081195,-117.2445588,"Blue Shield, Community Health, Kaiser, Molina"
FALLBROOK HOSP DISTRICT SKILLED NURSING FACILITY,325 POTTER ST,FALLBROOK,CA,92028,GENERAL ACUTE CARE,OPEN,SAN DIEGO,USA,33.37944077,-117.2434998,"Blue Shield, Community Health, Kaiser, Molina"
EDGEMOOR GERIATRIC HOSPITAL,655 PARK CENTER DRIVE,SANTEE,CA,92071,PSYCHIATRIC,OPEN,SAN DIEGO,USA,32.85234511,-116.9741142,"Blue Shield, Community Health, Kaiser, Molina"
SHARP CORONADO HOSPITAL AND HEALTHCARE CENTER,250 PROSPECT PLACE,CORONADO,CA,92118,GENERAL ACUTE CARE,OPEN,SAN DIEGO,USA,32.6941428,-117.1685922,"Blue Shield, Community Health, Kaiser, Molina"
"UCSD-LA JOLLA, JOHN M & SALLY B. THORNTON HOSPITAL",9300 CAMPUS POINT DRIVE,LA JOLLA,CA,92037,GENERAL ACUTE CARE,OPEN,SAN DIEGO,USA,32.87802331,-117.2255989,"Blue Shield, Community Health, Kaiser, Molina"
KINDRED HOSPITAL - SAN DIEGO,1940 EL CAJON BOULEVARD,SAN DIEGO,CA,92104,GENERAL ACUTE CARE,OPEN,SAN DIEGO,USA,32.75638366,-117.1446454,"Blue Shield, Community Health, Kaiser, Molina"
SCRIPPS MERCY HOSPITAL,4077 FIFTH AVENUE,SAN DIEGO,CA,92103,GENERAL ACUTE CARE,OPEN,SAN DIEGO,USA,32.75143062,-117.1600536,"Blue Shield, Community Health, Kaiser, Molina"
SCRIPPS MERCY HOSPITAL - CHULA VISTA,435 H STREET,CHULA VISTA,CA,91910,GENERAL ACUTE CARE,OPEN,SAN DIEGO,USA,32.63374646,-117.0832587,"Blue Shield, Community Health, Kaiser, Molina"
ALVARADO HOSPITAL MEDICAL CENTER,6655 ALVARADO ROAD,SAN DIEGO,CA,92120,GENERAL ACUTE CARE,OPEN,SAN DIEGO,USA,32.77658639,-117.0570646,"Blue Shield, Community Health, Kaiser, Molina"
ALVARADO PARKWAY INSTITUTE B.H.S.,7050 PARKWAY DRIVE,LA MESA,CA,91942,PSYCHIATRIC,OPEN,SAN DIEGO,USA,32.77463167,-117.0441618,"Blue Shield, Community Health, Kaiser, Molina"
POMERADO HOSPITAL,15615 POMERADO ROAD,POWAY,CA,92064,GENERAL ACUTE CARE,OPEN,SAN DIEGO,USA,32.99707518,-117.0555514,"Blue Shield, Community Health, Kaiser, Molina"
PARADISE VALLEY HSP D/P APH BAYVIEW BEH HLTH,330 MOSS STREET,CHULA VISTA,CA,91911,GENERAL ACUTE CARE,OPEN,SAN DIEGO,USA,32.61749401,-117.0717121,"Blue Shield, Community Health, Kaiser, Molina"
PARADISE VALLEY HOSPITAL,2400 EAST FOURTH STREET,NATIONAL CITY,CA,92050,GENERAL ACUTE CARE,OPEN,SAN DIEGO,USA,32.68534055,-117.0823367,"Blue Shield, Community Health, Kaiser, Molina"
PALOMAR MEDICAL CENTER,2185 W. CITRACADO PARKWAY,ESCONDIDO,CA,92025,GENERAL ACUTE CARE,OPEN,SAN DIEGO,USA,33.12221694,-117.1213709,"Blue Shield, Community Health, Kaiser, Molina"
PALOMAR HEALTH DOWNTOWN CAMPUS,555 E. VALLEY PARKWAY,ESCONDIDO,CA,92025,GENERAL ACUTE CARE,OPEN,SAN DIEGO,USA,33.12508512,-117.0752947,"Blue Shield, Community Health, Kaiser, Molina"
AURORA SAN DIEGO,11878 AVENUE OF INDUSTRY,SAN DIEGO,CA,92128,PSYCHIATRIC,OPEN,SAN DIEGO,USA,32.99118313,-117.0753176,"Blue Shield, Community Health, Kaiser, Molina"
VILLA CORONADO CONVALESCENT (DP/SNF),233 PROSPECT PLACE,CORONADO,CA,92118,GENERAL ACUTE CARE,OPEN,SAN DIEGO,USA,32.694474,-117.1673575,"Blue Shield, Community Health, Kaiser, Molina"
VIBRA HOSPITAL OF SAN DIEGO,555 WASHINGTON STREET,SAN DIEGO,CA,92103,GENERAL ACUTE CARE,OPEN,SAN DIEGO,USA,32.74962807,-117.1597694,"Blue Shield, Community Health, Kaiser, Molina"
SAN DIEGO COUNTY PSYCHIATRIC HOSPITAL,3851 ROSECRANS STREET,SAN DIEGO,CA,92110,PSYCHIATRIC,OPEN,SAN DIEGO,USA,32.75367809,-117.2020656,"Blue Shield, Community Health, Kaiser, Molina"
SHARP CHULA VISTA MEDICAL CENTER,751 MEDICAL CENTER COURT,CHULA VISTA,CA,91911,GENERAL ACUTE CARE,OPEN,SAN DIEGO,USA,32.61897607,-117.0231856,"Blue Shield, Community Health, Kaiser, Molina"
VA SAN DIEGO HEALTHCARE SYSTEM,3350 LA JOLLA VILLAGE DR,SAN DIEGO,CA,92161,MILITARY,OPEN,SAN DIEGO,USA,32.87555805,-117.2324193,"Blue Shield, Community Health, Kaiser, Molina"
NAVAL MEDICAL CENTER SAN DIEGO,34800 BOB WILSON DR,SAN DIEGO,CA,92134,MILITARY,OPEN,SAN DIEGO,USA,32.72752023,-117.1459373,"Blue Shield, Community Health, Kaiser, Molina"
SCRIPPS GREEN HOSPITAL,10666 NORTH TORREY PINES ROAD,LA JOLLA,CA,92037,GENERAL ACUTE CARE,OPEN,SAN DIEGO,USA,32.8968589,-117.2428711,"Blue Shield, Community Health, Kaiser, Molina"
SCRIPPS MEMORIAL HOSPITAL - ENCINITAS,354 SANTA FE DRIVE,ENCINITAS,CA,92024,GENERAL ACUTE CARE,OPEN,SAN DIEGO,USA,33.03734478,-117.2841834,"Blue Shield, Community Health, Kaiser, Molina"
SCRIPPS MEMORIAL HOSPITAL - LA JOLLA,9888 GENESEE AVENUE,LA JOLLA,CA,92037,GENERAL ACUTE CARE,OPEN,SAN DIEGO,USA,32.88518451,-117.2254602,"Blue Shield, Community Health, Kaiser, Molina"
RADY CHILDREN'S HOSPITAL - SAN DIEGO,3020 CHILDREN'S WAY,SAN DIEGO,CA,92123,CHILDREN,OPEN,SAN DIEGO,USA,32.79795853,-117.151301,"Blue Shield, Community Health, Kaiser, Molina"
CALIFORNIA PACIFIC MED CTR-DAVIES CAMPUS,601 DUBOCE AVENUE,SAN FRANCISCO,CA,94117,GENERAL ACUTE CARE,OPEN,SAN FRANCISCO,USA,37.76868428,-122.4345303,"Anthem Blue Cross, Kaiser, San Francisco Health"
UCSF MEDICAL CENTER,505 PARNASSUS AVENUE,SAN FRANCISCO,CA,94122,GENERAL ACUTE CARE,OPEN,SAN FRANCISCO,USA,37.76307685,-122.4578772,"Anthem Blue Cross, Kaiser, San Francisco Health"
CALIFORNIA PACIFIC MED CTR-PACIFIC CAMPUS,2333 BUCHANAN STREET,SAN FRANCISCO,CA,94115,GENERAL ACUTE CARE,OPEN,SAN FRANCISCO,USA,37.79070454,-122.4312945,"Anthem Blue Cross, Kaiser, San Francisco Health"
UCSF MEDICAL CENTER AT MISSION BAY,1975 4TH STREET,SAN FRANCISCO,CA,94158,GENERAL ACUTE CARE,OPEN,SAN FRANCISCO,USA,37.76548003,-122.3900705,"Anthem Blue Cross, Kaiser, San Francisco Health"
UCSF MEDICAL CENTER AT MOUNT ZION,1600 DIVISADERO STREET,SAN FRANCISCO,CA,94115,GENERAL ACUTE CARE,OPEN,SAN FRANCISCO,USA,37.78491971,-122.4391472,"Anthem Blue Cross, Kaiser, San Francisco Health"
CALIFORNIA PACIFIC MEDICAL CENTER - ST. LUKE'S CAMPUS,3555 CESAR CHAVEZ STREET,SAN FRANCISCO,CA,94110,GENERAL ACUTE CARE,OPEN,SAN FRANCISCO,USA,37.74771786,-122.4207679,"Anthem Blue Cross, Kaiser, San Francisco Health"
CHINESE HOSPITAL,845 JACKSON STREET,SAN FRANCISCO,CA,94133,GENERAL ACUTE CARE,OPEN,SAN FRANCISCO,USA,37.79548828,-122.4091688,"Anthem Blue Cross, Kaiser, San Francisco Health"
"ST. MARY'S MEDICAL CENTER, SAN FRANCISCO",450 STANYAN STREET,SAN FRANCISCO,CA,94117,GENERAL ACUTE CARE,OPEN,SAN FRANCISCO,USA,37.77408876,-122.4537516,"Anthem Blue Cross, Kaiser, San Francisco Health"
JEWISH HOME,302 SILVER AVENUE,SAN FRANCISCO,CA,94112,PSYCHIATRIC,OPEN,SAN FRANCISCO,USA,37.72777424,-122.430891,"Anthem Blue Cross, Kaiser, San Francisco Health"
CALIFORNIA PACIFIC MED CTR-CALIFORNIA WEST,3700 CALIFORNIA STREET,SAN FRANCISCO,CA,94118,GENERAL ACUTE CARE,OPEN,SAN FRANCISCO,USA,37.7865092,-122.4560306,"Anthem Blue Cross, Kaiser, San Francisco Health"
KAISER FND HOSP - SAN FRANCISCO,2425 GEARY BOULEVARD,SAN FRANCISCO,CA,94115,GENERAL ACUTE CARE,OPEN,SAN FRANCISCO,USA,37.78228361,-122.4432534,"Anthem Blue Cross, Kaiser, San Francisco Health"
LAGUNA HONDA HOSPITAL AND REHABILITATION CENTER,375 LAGUNA HONDA BOULEVARD,SAN FRANCISCO,CA,94116,GENERAL ACUTE CARE,OPEN,SAN FRANCISCO,USA,37.77436408,-122.4258734,"Anthem Blue Cross, Kaiser, San Francisco Health"
PRISCILLA CHAN & MARK ZUCKERBERG SAN FRANCISCO GENERAL HOSPITAL & TRAUMA CENTER,1001 POTRERO AVENUE,SAN FRANCISCO,CA,94110,GENERAL ACUTE CARE,OPEN,SAN FRANCISCO,USA,37.75657562,-122.4057621,"Anthem Blue Cross, Kaiser, San Francisco Health"
KENTFIELD HOSPITAL SAN FRANCISCO,450 STANYAN ST.,SAN FRANCISCO,CA,94117,LONG TERM CARE,OPEN,SAN FRANCISCO,USA,37.77403879,-122.45403,"Anthem Blue Cross, Kaiser, San Francisco Health"
ST. FRANCIS MEMORIAL HOSPITAL,900 HYDE STREET,SAN FRANCISCO,CA,94109,GENERAL ACUTE CARE,OPEN,SAN FRANCISCO,USA,37.74932237,-122.4568964,"Anthem Blue Cross, Kaiser, San Francisco Health"
SAN FRANCISCO VA HEALTH CARE SYSTEM,4150 CLEMENT ST,SAN FRANCISCO,CA,94121,MILITARY,OPEN,SAN FRANCISCO,USA,37.78229119,-122.5049746,"Anthem Blue Cross, Kaiser, San Francisco Health"
LANGLEY PORTER PSYCHIATRIC INSTITUTE,401 PARNASSUS AVENUE,SAN FRANCISCO,CA,94143,PSYCHIATRIC,OPEN,SAN FRANCISCO,USA,37.76347235,-122.4568506,"Anthem Blue Cross, Kaiser, San Francisco Health"
KAISER PERMANENTE P.H.F - SANTA CLARA,3840 HOMESTEAD ROAD,SANTA CLARA,CA,95051,PSYCHIATRIC,OPEN,SANTA CLARA,USA,37.3363326,-122.0020314,"Anthem Blue Cross, Kaiser, Santa Clara Health"
CRESTWOOD SAN JOSE PSYCHIATRIC HEALTH FACILITY,"1425 FRUITDALE AVE,SUITE A",SAN JOSE,CA,95128,PSYCHIATRIC,OPEN,SANTA CLARA,USA,37.31129603,-121.9150166,"Anthem Blue Cross, Kaiser, Santa Clara Health"
CHILDRENS RECOVERY CENTER OF NORTHERN CALIFORNIA,3777 SOUTH BASCOM AVENUE,CAMPBELL,CA,95008,CHILDREN,OPEN,SANTA CLARA,USA,37.25975739,-121.947554,"Anthem Blue Cross, Kaiser, Santa Clara Health"
SANTA CLARA VALLEY MEDICAL CENTER,751 SOUTH BASCOM AVENUE,SAN JOSE,CA,95128,GENERAL ACUTE CARE,OPEN,SANTA CLARA,USA,37.31288953,-121.9329627,"Anthem Blue Cross, Kaiser, Santa Clara Health"
LUCILE SALTER PACKARD CHILDREN'S HOSP. AT STANFORD,725 WELCH ROAD,PALO ALTO,CA,94304,GENERAL ACUTE CARE,OPEN,SANTA CLARA,USA,37.43600458,-122.17539,"Anthem Blue Cross, Kaiser, Santa Clara Health"
VA MEDICAL CENTER - PALO ALTO DIVISION,3801 MIRANDA AVE,PALO ALTO,CA,94304,MILITARY,OPEN,SANTA CLARA,USA,37.40535302,-122.1397846,"Anthem Blue Cross, Kaiser, Santa Clara Health"
SAN JOSE BEHAVIORAL HEALTH,455 SILICON VALLEY BOULEVARD,SAN JOSE,CA,95138,GENERAL ACUTE CARE,OPEN,SANTA CLARA,USA,37.24902093,-121.7744582,"Anthem Blue Cross, Kaiser, Santa Clara Health"
EL CAMINO HOSPITAL,2500 GRANT ROAD,MOUNTAIN VIEW,CA,94040,GENERAL ACUTE CARE,OPEN,SANTA CLARA,USA,37.36945882,-122.0799957,"Anthem Blue Cross, Kaiser, Santa Clara Health"
EL CAMINO HOSPITAL LOS GATOS,815 POLLARD ROAD,LOS GATOS,CA,95032,GENERAL ACUTE CARE,OPEN,SANTA CLARA,USA,37.26252715,-121.9694066,"Anthem Blue Cross, Kaiser, Santa Clara Health"
KAISER FND HOSP - SANTA CLARA,700 LAWRENCE EXPRESSWAY,SANTA CLARA,CA,95051,GENERAL ACUTE CARE,OPEN,SANTA CLARA,USA,37.33540138,-121.998873,"Anthem Blue Cross, Kaiser, Santa Clara Health"
KAISER FND HOSP - SAN JOSE,250 HOSPITAL PARKWAY,SAN JOSE,CA,95119,GENERAL ACUTE CARE,OPEN,SANTA CLARA,USA,37.23980334,-121.8002157,"Anthem Blue Cross, Kaiser, Santa Clara Health"
O'CONNOR HOSPITAL,2105 FOREST AVENUE,SAN JOSE,CA,95128,GENERAL ACUTE CARE,OPEN,SANTA CLARA,USA,37.32792474,-121.938392,"Anthem Blue Cross, Kaiser, Santa Clara Health"
GOOD SAMARITAN HOSPITAL-SAN JOSE,2425 SAMARITAN DRIVE,SAN JOSE,CA,95124,GENERAL ACUTE CARE,OPEN,SANTA CLARA,USA,37.25207874,-121.9465769,"Anthem Blue Cross, Kaiser, Santa Clara Health"
STANFORD HOSPITAL,300 PASTEUR DRIVE,PALO ALTO,CA,94305,GENERAL ACUTE CARE,OPEN,SANTA CLARA,USA,37.43465244,-122.1748831,"Anthem Blue Cross, Kaiser, Santa Clara Health"
REGIONAL MEDICAL OF SAN JOSE,225 NORTH JACKSON AVENUE,SAN JOSE,CA,95116,GENERAL ACUTE CARE,OPEN,SANTA CLARA,USA,37.36231615,-121.8489245,"Anthem Blue Cross, Kaiser, Santa Clara Health"
MISSION OAKS HOSPITAL,15891 LOS GATOS-ALMADEN ROAD,LOS GATOS,CA,95032,GENERAL ACUTE CARE,OPEN,SANTA CLARA,USA,37.24471473,-121.9480738,"Anthem Blue Cross, Kaiser, Santa Clara Health"
ST. LOUISE REGIONAL HOSPITAL,9400 NO NAME UNO,GILROY,CA,95020,GENERAL ACUTE CARE,OPEN,SANTA CLARA,USA,37.03655836,-121.571371,"Anthem Blue Cross, Kaiser, Santa Clara Health"
AURORA BEHAVIORAL HEALTHCARE-SANTA ROSA,1287 FULTON ROAD,SANTA ROSA,CA,95401,PSYCHIATRIC,OPEN,SONOMA,USA,38.45039782,-122.7716262,"Kaiser, Partnership Health "
SANTA ROSA MEMORIAL HOSPITAL-MONTGOMERY,1165 MONTGOMERY DRIVE,SANTA ROSA,CA,95405,GENERAL ACUTE CARE,OPEN,SONOMA,USA,38.4437493,-122.7017396,"Kaiser, Partnership Health "
PETALUMA VALLEY HOSPITAL,400 NORTH MC DOWELL BOULEVARD,PETALUMA,CA,94954,GENERAL ACUTE CARE,OPEN,SONOMA,USA,38.2546958,-122.6317783,"Kaiser, Partnership Health "
SANTA ROSA MEMORIAL HOSPITAL-SOTOYOME,151 SOTOYOME STREET,SANTA ROSA,CA,95405,GENERAL ACUTE CARE,OPEN,SONOMA,USA,38.44173065,-122.7024603,"Kaiser, Partnership Health "
SUTTER SANTA ROSA REGIONAL HOSPITAL,30 MARK WEST SPRINGS RD.,SANTA ROSA,CA,95403,GENERAL ACUTE CARE,OPEN,SONOMA,USA,38.49495922,-122.751872,"Kaiser, Partnership Health "
SONOMA VALLEY HOSPITAL,347 ANDRIEUX STREET,SONOMA,CA,95476,GENERAL ACUTE CARE,OPEN,SONOMA,USA,38.28807387,-122.4650102,"Kaiser, Partnership Health "
SONOMA WEST MEDICAL CENTER,501 PETALUMA AVENUE,SEBASTOPOL,CA,95472,GENERAL ACUTE CARE,OPEN,SONOMA,USA,38.39717434,-122.8190262,"Kaiser, Partnership Health "
SONOMA DEVELOPMENTAL CENTER,15000 ARNOLD DRIVE,ELDRIDGE,CA,95431,GENERAL ACUTE CARE,OPEN,SONOMA,USA,38.34717995,-122.5186989,"Kaiser, Partnership Health "
HEALDSBURG DISTRICT HOSPITAL,1375 UNIVERSITY STREET,HEALDSBURG,CA,95448,GENERAL ACUTE CARE,OPEN,SONOMA,USA,38.62709551,-122.864402,"Kaiser, Partnership Health "
KAISER FND HOSP - SANTA ROSA,401 BICENTENNIAL WAY,SANTA ROSA,CA,95403,GENERAL ACUTE CARE,OPEN,SONOMA,USA,38.47179301,-122.7270644,"Kaiser, Partnership Health "
AURORA VISTA DEL MAR HOSPITAL,801 SENECA STREET,VENTURA,CA,93001,PSYCHIATRIC,OPEN,VENTURA,USA,34.30776435,-119.2836635,"Kaiser, Gold Coast Health"
ST. JOHN'S PLEASANT VALLEY HOSPITAL,2309 ANTONIO AVENUE,CAMARILLO,CA,93010,GENERAL ACUTE CARE,OPEN,VENTURA,USA,34.24367912,-119.0194477,"Kaiser, Gold Coast Health"
OJAI VALLEY COMMUNITY HOSPITAL,1306 MARICOPA HIGHWAY,OJAI,CA,93023,GENERAL ACUTE CARE,OPEN,VENTURA,USA,34.44291519,-119.2643843,"Kaiser, Gold Coast Health"
SIMI VALLEY HOSPITAL AND HEALTH CARE SVCS-SYCAMORE,2975 NORTH SYCAMORE DRIVE,SIMI VALLEY,CA,93065,GENERAL ACUTE CARE,OPEN,VENTURA,USA,34.28916539,-118.7445353,"Kaiser, Gold Coast Health"
VENTURA COUNTY MEDICAL CENTER - SANTA PAULA  HOSPITAL,825 NORTH 10TH STREET,SANTA PAULA,CA,93060,GENERAL ACUTE CARE,OPEN,VENTURA,USA,34.3664467,-119.0649148,"Kaiser, Gold Coast Health"
VENTURA COUNTY MEDICAL CENTER,3291 LOMA VISTA ROAD,VENTURA,CA,93003,GENERAL ACUTE CARE,OPEN,VENTURA,USA,34.2773502,-119.2521337,"Kaiser, Gold Coast Health"
LOS ROBLES HOSPITAL & MEDICAL CENTER - EAST CAMPUS,150 VIA MERIDA,WESTLAKE VILAGE,CA,91362,GENERAL ACUTE CARE,OPEN,VENTURA,USA,34.15493887,-118.8157364,"Kaiser, Gold Coast Health"
LOS ROBLES HOSPITAL & MEDICAL CENTER,215 WEST JANSS ROAD,THOUSAND OAKS,CA,91360,GENERAL ACUTE CARE,OPEN,VENTURA,USA,34.20797051,-118.8828949,"Kaiser, Gold Coast Health"
THOUSAND OAKS SURGICAL HOSPITAL,401 ROLLING OAKS DRIVE,THOUSAND OAKS,CA,91361,GENERAL ACUTE CARE,OPEN,VENTURA,USA,34.17486097,-118.8693842,"Kaiser, Gold Coast Health"
COMMUNITY MEMORIAL HOSPITAL-SAN BUENAVENTURA,147 N. BRENT STREET,VENTURA,CA,93003,GENERAL ACUTE CARE,OPEN,VENTURA,USA,34.27464599,-119.2583026,"Kaiser, Gold Coast Health"
OJAI MANOR CONVALESCENT HOSPITAL,1306 MARICOPA HIGHWAY,OJAI,CA,93023,GENERAL ACUTE CARE,OPEN,VENTURA,USA,34.4429598,-119.2643724,"Kaiser, Gold Coast Health"
ST. JOHN'S REGIONAL MEDICAL CENTER,1600 NORTH ROSE AVENUE,OXNARD,CA,93030,GENERAL ACUTE CARE,OPEN,VENTURA,USA,34.21633831,-119.1557183,"Kaiser, Gold Coast Health"
